Property name,Address,City,County,State,ZIP code,Latitude,Longitude,Housing Authority,,,,,,,
MAJOR BOWMAN TERRACE,203 Bowman Ter,Vincennes,Knox,IN,475911729,38.695122,-87.512132,Vincennes Housing Authority,,,,,,,
MAJOR BOWMAN TERRACE,203 Bowman Ter,Vincennes,Knox,IN,475911729,38.695122,-87.512132,Vincennes Housing Authority,,,,,,,
MAJOR BOWMAN TERRACE,203 Bowman Ter,Vincennes,Knox,IN,475911729,38.695122,-87.512132,Vincennes Housing Authority,,,,,,,
MAJOR BOWMAN TERRACE,203 Bowman Ter,Vincennes,Knox,IN,475911729,38.695122,-87.512132,Vincennes Housing Authority,,,,,,,
MAJOR BOWMAN TERRACE,203 Bowman Ter,Vincennes,Knox,IN,475911729,38.695122,-87.512132,Vincennes Housing Authority,,,,,,,
OLD FRENCH TOWNE,600 Nicholas St Apt 101,Vincennes,Knox,IN,475911078,38.674473,-87.533501,Vincennes Housing Authority,,,,,,,
OLD FRENCH TOWNE,600 Nicholas St Apt 101,Vincennes,Knox,IN,475911078,38.674473,-87.533501,Vincennes Housing Authority,,,,,,,
OLD FRENCH TOWNE,600 Nicholas St Apt 101,Vincennes,Knox,IN,475911078,38.674473,-87.533501,Vincennes Housing Authority,,,,,,,
OLD FRENCH TOWNE,600 Nicholas St Apt 101,Vincennes,Knox,IN,475911078,38.674473,-87.533501,Vincennes Housing Authority,,,,,,,
OLD FRENCH TOWNE,600 Nicholas St Apt 101,Vincennes,Knox,IN,475911078,38.674473,-87.533501,Vincennes Housing Authority,,,,,,,
PIANKENSHAW PLACE,501 Hart St,Vincennes,Knox,IN,475912103,38.680626,-87.524972,Vincennes Housing Authority,,,,,,,
PIANKENSHAW PLACE,501 Hart St,Vincennes,Knox,IN,475912103,38.680626,-87.524972,Vincennes Housing Authority,,,,,,,
PIANKENSHAW PLACE,501 Hart St,Vincennes,Knox,IN,475912103,38.680626,-87.524972,Vincennes Housing Authority,,,,,,,
PIANKENSHAW PLACE,501 Hart St,Vincennes,Knox,IN,475912103,38.680626,-87.524972,Vincennes Housing Authority,,,,,,,
PIANKENSHAW PLACE,501 Hart St,Vincennes,Knox,IN,475912103,38.680626,-87.524972,Vincennes Housing Authority,,,,,,,
PRESIDENTIAL ESTATES,PRESIDENTIAL ESTATES,VINCENNES,Knox,IN,47591,38.6693,-87.5106,Vincennes Housing Authority,,,,,,,
PRESIDENTIAL ESTATES,PRESIDENTIAL ESTATES,VINCENNES,Knox,IN,47591,38.6693,-87.5106,Vincennes Housing Authority,,,,,,,
PRESIDENTIAL ESTATES,PRESIDENTIAL ESTATES,VINCENNES,Knox,IN,47591,38.6693,-87.5106,Vincennes Housing Authority,,,,,,,
PRESIDENTIAL ESTATES,PRESIDENTIAL ESTATES,VINCENNES,Knox,IN,47591,38.6693,-87.5106,Vincennes Housing Authority,,,,,,,
PRESIDENTIAL ESTATES,PRESIDENTIAL ESTATES,VINCENNES,Knox,IN,47591,38.6693,-87.5106,Vincennes Housing Authority,,,,,,,
SUNSET COURT,1 Sunset Ct,Vincennes,Knox,IN,475914263,38.663747,-87.536186,Vincennes Housing Authority,,,,,,,
MIAMI HOMES,3510 Miami Ln,Fort Wayne,Allen,IN,468091327,41.052964,-85.167744,Fort Wayne Housing Authority,,,,,,,
MIAMI HOMES,3510 Miami Ln,Fort Wayne,Allen,IN,468091327,41.052964,-85.167744,Fort Wayne Housing Authority,,,,,,,
MIAMI HOMES,3510 Miami Ln,Fort Wayne,Allen,IN,468091327,41.052964,-85.167744,Fort Wayne Housing Authority,,,,,,,
MIAMI HOMES,3510 Miami Ln,Fort Wayne,Allen,IN,468091327,41.052964,-85.167744,Fort Wayne Housing Authority,,,,,,,
BEACON HEIGHTS,2210 Beacon St,Fort Wayne,Allen,IN,468054766,41.096414,-85.103141,Fort Wayne Housing Authority,,,,,,,
BEACON HEIGHTS,2210 Beacon St,Fort Wayne,Allen,IN,468054766,41.096414,-85.103141,Fort Wayne Housing Authority,,,,,,,
BEACON HEIGHTS,2210 Beacon St,Fort Wayne,Allen,IN,468054766,41.096414,-85.103141,Fort Wayne Housing Authority,,,,,,,
BEACON HEIGHTS,2210 Beacon St,Fort Wayne,Allen,IN,468054766,41.096414,-85.103141,Fort Wayne Housing Authority,,,,,,,
MCCORMICK PLACE,3048 Schele Ave,Fort Wayne,Allen,IN,468032775,41.066756,-85.099123,Fort Wayne Housing Authority,,,,,,,
MCCORMICK PLACE,3048 Schele Ave,Fort Wayne,Allen,IN,468032775,41.066756,-85.099123,Fort Wayne Housing Authority,,,,,,,
MCCORMICK PLACE,3048 Schele Ave,Fort Wayne,Allen,IN,468032775,41.066756,-85.099123,Fort Wayne Housing Authority,,,,,,,
MCCORMICK PLACE,3048 Schele Ave,Fort Wayne,Allen,IN,468032775,41.066756,-85.099123,Fort Wayne Housing Authority,,,,,,,
BROOKMILL COURT,2703 Millbrook Dr,Fort Wayne,Allen,IN,468023843,41.06027,-85.168509,Fort Wayne Housing Authority,,,,,,,
BROOKMILL COURT,2703 Millbrook Dr,Fort Wayne,Allen,IN,468023843,41.06027,-85.168509,Fort Wayne Housing Authority,,,,,,,
BROOKMILL COURT,2703 Millbrook Dr,Fort Wayne,Allen,IN,468023843,41.06027,-85.168509,Fort Wayne Housing Authority,,,,,,,
BROOKMILL COURT,2703 Millbrook Dr,Fort Wayne,Allen,IN,468023843,41.06027,-85.168509,Fort Wayne Housing Authority,,,,,,,
NORTH HIGHLANDS,2100 St Marys Ave,Fort Wayne,Allen,IN,468082362,41.094258,-85.156088,Fort Wayne Housing Authority,,,,,,,
NORTH HIGHLANDS,2100 St Marys Ave,Fort Wayne,Allen,IN,468082362,41.094258,-85.156088,Fort Wayne Housing Authority,,,,,,,
NORTH HIGHLANDS,2100 St Marys Ave,Fort Wayne,Allen,IN,468082362,41.094258,-85.156088,Fort Wayne Housing Authority,,,,,,,
NORTH HIGHLANDS,2100 St Marys Ave,Fort Wayne,Allen,IN,468082362,41.094258,-85.156088,Fort Wayne Housing Authority,,,,,,,
TALL OAKS,7300 Decatur Rd,Fort Wayne,Allen,IN,468163950,41.018325,-85.115324,Fort Wayne Housing Authority,,,,,,,
TALL OAKS,7300 Decatur Rd,Fort Wayne,Allen,IN,468163950,41.018325,-85.115324,Fort Wayne Housing Authority,,,,,,,
TALL OAKS,7300 Decatur Rd,Fort Wayne,Allen,IN,468163950,41.018325,-85.115324,Fort Wayne Housing Authority,,,,,,,
TALL OAKS,7300 Decatur Rd,Fort Wayne,Allen,IN,468163950,41.018325,-85.115324,Fort Wayne Housing Authority,,,,,,,
MAUMEE TERRACE,908 Harmar St,Fort Wayne,Allen,IN,468033919,41.079816,-85.126358,Fort Wayne Housing Authority,,,,,,,
MAUMEE TERRACE,908 Harmar St,Fort Wayne,Allen,IN,468033919,41.079816,-85.126358,Fort Wayne Housing Authority,,,,,,,
MAUMEE TERRACE,908 Harmar St,Fort Wayne,Allen,IN,468033919,41.079816,-85.126358,Fort Wayne Housing Authority,,,,,,,
MAUMEE TERRACE,908 Harmar St,Fort Wayne,Allen,IN,468033919,41.079816,-85.126358,Fort Wayne Housing Authority,,,,,,,
SCATTERED SITES,1501 High St,Fort Wayne,Allen,IN,468083420,41.084779,-85.161283,Fort Wayne Housing Authority,,,,,,,
SCATTERED SITES,1501 High St,Fort Wayne,Allen,IN,468083420,41.084779,-85.161283,Fort Wayne Housing Authority,,,,,,,
SCATTERED SITES,1501 High St,Fort Wayne,Allen,IN,468083420,41.084779,-85.161283,Fort Wayne Housing Authority,,,,,,,
SCATTERED SITES,1501 High St,Fort Wayne,Allen,IN,468083420,41.084779,-85.161283,Fort Wayne Housing Authority,,,,,,,
RIVER COVE,2631 River Cove Trl,Fort Wayne,Allen,IN,468253163,41.149098,-85.108994,Fort Wayne Housing Authority,,,,,,,
RIVER COVE,2631 River Cove Trl,Fort Wayne,Allen,IN,468253163,41.149098,-85.108994,Fort Wayne Housing Authority,,,,,,,
RIVER COVE,2631 River Cove Trl,Fort Wayne,Allen,IN,468253163,41.149098,-85.108994,Fort Wayne Housing Authority,,,,,,,
RIVER COVE,2631 River Cove Trl,Fort Wayne,Allen,IN,468253163,41.149098,-85.108994,Fort Wayne Housing Authority,,,,,,,
MIDDLETOWN GARDENS,2906 E Bartirome St,Muncie,Delaware,IN,473027540,40.174534,-85.352342,Delaware County Housing Authority,,,,,,,
MIDDLETOWN GARDENS,2906 E Bartirome St,Muncie,Delaware,IN,473027540,40.174534,-85.352342,Delaware County Housing Authority,,,,,,,
MIDDLETOWN GARDENS,2906 E Bartirome St,Muncie,Delaware,IN,473027540,40.174534,-85.352342,Delaware County Housing Authority,,,,,,,
MIDDLETOWN GARDENS,2906 E Bartirome St,Muncie,Delaware,IN,473027540,40.174534,-85.352342,Delaware County Housing Authority,,,,,,,
MIDDLETOWN GARDENS,2906 E Bartirome St,Muncie,Delaware,IN,473027540,40.174534,-85.352342,Delaware County Housing Authority,,,,,,,
MARY KAY MANOR,2950 E Tanner Dr,Muncie,Delaware,IN,473027555,40.173094,-85.349532,Delaware County Housing Authority,,,,,,,
MARY KAY MANOR,2950 E Tanner Dr,Muncie,Delaware,IN,473027555,40.173094,-85.349532,Delaware County Housing Authority,,,,,,,
MARY KAY MANOR,2950 E Tanner Dr,Muncie,Delaware,IN,473027555,40.173094,-85.349532,Delaware County Housing Authority,,,,,,,
MARY KAY MANOR,2950 E Tanner Dr,Muncie,Delaware,IN,473027555,40.173094,-85.349532,Delaware County Housing Authority,,,,,,,
MARY KAY MANOR,2950 E Tanner Dr,Muncie,Delaware,IN,473027555,40.173094,-85.349532,Delaware County Housing Authority,,,,,,,
MUNSYANA HMS,671 E 2nd St,Muncie,Delaware,IN,473022410,40.186721,-85.379912,Housing Authority of the City of Muncie,,,,,,,
MUNSYANA HMS,671 E 2nd St,Muncie,Delaware,IN,473022410,40.186721,-85.379912,Housing Authority of the City of Muncie,,,,,,,
MUNSYANA HMS,671 E 2nd St,Muncie,Delaware,IN,473022410,40.186721,-85.379912,Housing Authority of the City of Muncie,,,,,,,
MUNSYANA HMS,671 E 2nd St,Muncie,Delaware,IN,473022410,40.186721,-85.379912,Housing Authority of the City of Muncie,,,,,,,
MUNSYANA HMS,671 E 2nd St,Muncie,Delaware,IN,473022410,40.186721,-85.379912,Housing Authority of the City of Muncie,,,,,,,
PARKVIEW APTS,1623 N Brady St,Muncie,Delaware,IN,473033155,40.207884,-85.368988,Housing Authority of the City of Muncie,,,,,,,
PARKVIEW APTS,1623 N Brady St,Muncie,Delaware,IN,473033155,40.207884,-85.368988,Housing Authority of the City of Muncie,,,,,,,
PARKVIEW APTS,1623 N Brady St,Muncie,Delaware,IN,473033155,40.207884,-85.368988,Housing Authority of the City of Muncie,,,,,,,
PARKVIEW APTS,1623 N Brady St,Muncie,Delaware,IN,473033155,40.207884,-85.368988,Housing Authority of the City of Muncie,,,,,,,
PARKVIEW APTS,1623 N Brady St,Muncie,Delaware,IN,473033155,40.207884,-85.368988,Housing Authority of the City of Muncie,,,,,,,
PARKVIEW APTS,1623 N Brady St,Muncie,Delaware,IN,473033155,40.207884,-85.368988,Housing Authority of the City of Muncie,,,,,,,
PARKVIEW APTS,1623 N Brady St,Muncie,Delaware,IN,473033155,40.207884,-85.368988,Housing Authority of the City of Muncie,,,,,,,
PARKVIEW APTS,1623 N Brady St,Muncie,Delaware,IN,473033155,40.207884,-85.368988,Housing Authority of the City of Muncie,,,,,,,
PARKVIEW APTS,1623 N Brady St,Muncie,Delaware,IN,473033155,40.207884,-85.368988,Housing Authority of the City of Muncie,,,,,,,
EARTHSTONE TERRACE,3304 S Juniper Ln,Muncie,Delaware,IN,473026101,40.163585,-85.362677,Housing Authority of the City of Muncie,,,,,,,
EARTHSTONE TERRACE,3304 S Juniper Ln,Muncie,Delaware,IN,473026101,40.163585,-85.362677,Housing Authority of the City of Muncie,,,,,,,
EARTHSTONE TERRACE,3304 S Juniper Ln,Muncie,Delaware,IN,473026101,40.163585,-85.362677,Housing Authority of the City of Muncie,,,,,,,
EARTHSTONE TERRACE,3304 S Juniper Ln,Muncie,Delaware,IN,473026101,40.163585,-85.362677,Housing Authority of the City of Muncie,,,,,,,
EARTHSTONE TERRACE,3304 S Juniper Ln,Muncie,Delaware,IN,473026101,40.163585,-85.362677,Housing Authority of the City of Muncie,,,,,,,
EARTHSTONE TERRACE,3304 S Juniper Ln,Muncie,Delaware,IN,473026101,40.163585,-85.362677,Housing Authority of the City of Muncie,,,,,,,
EARTHSTONE TERRACE,3304 S Juniper Ln,Muncie,Delaware,IN,473026101,40.163585,-85.362677,Housing Authority of the City of Muncie,,,,,,,
EARTHSTONE TERRACE,3304 S Juniper Ln,Muncie,Delaware,IN,473026101,40.163585,-85.362677,Housing Authority of the City of Muncie,,,,,,,
GILLESPIE TOWER,701 W Jackson St Apt 101,Muncie,Delaware,IN,473051579,40.192752,-85.393203,Housing Authority of the City of Muncie,,,,,,,
GILLESPIE TOWER,701 W Jackson St Apt 101,Muncie,Delaware,IN,473051579,40.192752,-85.393203,Housing Authority of the City of Muncie,,,,,,,
GILLESPIE TOWER,701 W Jackson St Apt 101,Muncie,Delaware,IN,473051579,40.192752,-85.393203,Housing Authority of the City of Muncie,,,,,,,
GILLESPIE TOWER,701 W Jackson St Apt 101,Muncie,Delaware,IN,473051579,40.192752,-85.393203,Housing Authority of the City of Muncie,,,,,,,
GILLESPIE TOWER,701 W Jackson St Apt 101,Muncie,Delaware,IN,473051579,40.192752,-85.393203,Housing Authority of the City of Muncie,,,,,,,
GILLESPIE TOWER,701 W Jackson St Apt 101,Muncie,Delaware,IN,473051579,40.192752,-85.393203,Housing Authority of the City of Muncie,,,,,,,
GILLESPIE TOWER,701 W Jackson St Apt 101,Muncie,Delaware,IN,473051579,40.192752,-85.393203,Housing Authority of the City of Muncie,,,,,,,
GILLESPIE TOWER,701 W Jackson St Apt 101,Muncie,Delaware,IN,473051579,40.192752,-85.393203,Housing Authority of the City of Muncie,,,,,,,
GILLESPIE TOWER,701 W Jackson St Apt 101,Muncie,Delaware,IN,473051579,40.192752,-85.393203,Housing Authority of the City of Muncie,,,,,,,
R.A.GREENE SOUTHERN PINES,4313 S Pinewood Dr,Muncie,Delaware,IN,473026214,40.154536,-85.38724,Housing Authority of the City of Muncie,,,,,,,
R.A.GREENE SOUTHERN PINES,4313 S Pinewood Dr,Muncie,Delaware,IN,473026214,40.154536,-85.38724,Housing Authority of the City of Muncie,,,,,,,
R.A.GREENE SOUTHERN PINES,4313 S Pinewood Dr,Muncie,Delaware,IN,473026214,40.154536,-85.38724,Housing Authority of the City of Muncie,,,,,,,
R.A.GREENE SOUTHERN PINES,4313 S Pinewood Dr,Muncie,Delaware,IN,473026214,40.154536,-85.38724,Housing Authority of the City of Muncie,,,,,,,
R.A.GREENE SOUTHERN PINES,4313 S Pinewood Dr,Muncie,Delaware,IN,473026214,40.154536,-85.38724,Housing Authority of the City of Muncie,,,,,,,
R.A.GREENE SOUTHERN PINES,4313 S Pinewood Dr,Muncie,Delaware,IN,473026214,40.154536,-85.38724,Housing Authority of the City of Muncie,,,,,,,
R.A.GREENE SOUTHERN PINES,4313 S Pinewood Dr,Muncie,Delaware,IN,473026214,40.154536,-85.38724,Housing Authority of the City of Muncie,,,,,,,
R.A.GREENE SOUTHERN PINES,4313 S Pinewood Dr,Muncie,Delaware,IN,473026214,40.154536,-85.38724,Housing Authority of the City of Muncie,,,,,,,
R.A.GREENE SOUTHERN PINES,4313 S Pinewood Dr,Muncie,Delaware,IN,473026214,40.154536,-85.38724,Housing Authority of the City of Muncie,,,,,,,
WESTVALE MANOR,2207 Fulton St,Anderson,Madison,IN,460163657,40.093501,-85.708699,Housing Authority of the City of Anderson,,,,,,,
WESTVALE MANOR,2207 Fulton St,Anderson,Madison,IN,460163657,40.093501,-85.708699,Housing Authority of the City of Anderson,,,,,,,
WESTVALE MANOR,2207 Fulton St,Anderson,Madison,IN,460163657,40.093501,-85.708699,Housing Authority of the City of Anderson,,,,,,,
WESTVALE MANOR,2207 Fulton St,Anderson,Madison,IN,460163657,40.093501,-85.708699,Housing Authority of the City of Anderson,,,,,,,
WESTVALE MANOR,2207 Fulton St,Anderson,Madison,IN,460163657,40.093501,-85.708699,Housing Authority of the City of Anderson,,,,,,,
SCATTERED SITES (I),1104 Victory Ct,Anderson,Madison,IN,460162832,40.104887,-85.696961,Housing Authority of the City of Anderson,,,,,,,
SCATTERED SITES (I),1104 Victory Ct,Anderson,Madison,IN,460162832,40.104887,-85.696961,Housing Authority of the City of Anderson,,,,,,,
SCATTERED SITES (I),1104 Victory Ct,Anderson,Madison,IN,460162832,40.104887,-85.696961,Housing Authority of the City of Anderson,,,,,,,
SCATTERED SITES (I),1104 Victory Ct,Anderson,Madison,IN,460162832,40.104887,-85.696961,Housing Authority of the City of Anderson,,,,,,,
SCATTERED SITES (I),1104 Victory Ct,Anderson,Madison,IN,460162832,40.104887,-85.696961,Housing Authority of the City of Anderson,,,,,,,
LYNNWOOD VILLAGE,1518 Weatherly Way,Anderson,Madison,IN,460161999,40.099679,-85.662217,Housing Authority of the City of Anderson,,,,,,,
LYNNWOOD VILLAGE,1518 Weatherly Way,Anderson,Madison,IN,460161999,40.099679,-85.662217,Housing Authority of the City of Anderson,,,,,,,
LYNNWOOD VILLAGE,1518 Weatherly Way,Anderson,Madison,IN,460161999,40.099679,-85.662217,Housing Authority of the City of Anderson,,,,,,,
LYNNWOOD VILLAGE,1518 Weatherly Way,Anderson,Madison,IN,460161999,40.099679,-85.662217,Housing Authority of the City of Anderson,,,,,,,
LYNNWOOD VILLAGE,1518 Weatherly Way,Anderson,Madison,IN,460161999,40.099679,-85.662217,Housing Authority of the City of Anderson,,,,,,,
SCATTERED SITES (II),1410 W 11th St,Anderson,Madison,IN,460162812,40.105183,-85.696728,Housing Authority of the City of Anderson,,,,,,,
SCATTERED SITES (II),1410 W 11th St,Anderson,Madison,IN,460162812,40.105183,-85.696728,Housing Authority of the City of Anderson,,,,,,,
SCATTERED SITES (II),1410 W 11th St,Anderson,Madison,IN,460162812,40.105183,-85.696728,Housing Authority of the City of Anderson,,,,,,,
SCATTERED SITES (II),1410 W 11th St,Anderson,Madison,IN,460162812,40.105183,-85.696728,Housing Authority of the City of Anderson,,,,,,,
SCATTERED SITES (II),1410 W 11th St,Anderson,Madison,IN,460162812,40.105183,-85.696728,Housing Authority of the City of Anderson,,,,,,,
17TH ST REVITALIZATION,1628 Hendricks St,Anderson,Madison,IN,460163432,40.099407,-85.690593,Housing Authority of the City of Anderson,,,,,,,
17TH ST REVITALIZATION,1628 Hendricks St,Anderson,Madison,IN,460163432,40.099407,-85.690593,Housing Authority of the City of Anderson,,,,,,,
17TH ST REVITALIZATION,1628 Hendricks St,Anderson,Madison,IN,460163432,40.099407,-85.690593,Housing Authority of the City of Anderson,,,,,,,
17TH ST REVITALIZATION,1628 Hendricks St,Anderson,Madison,IN,460163432,40.099407,-85.690593,Housing Authority of the City of Anderson,,,,,,,
17TH ST REVITALIZATION,1628 Hendricks St,Anderson,Madison,IN,460163432,40.099407,-85.690593,Housing Authority of the City of Anderson,,,,,,,
GARDEN SQUARE,800 E Hoffer St,Kokomo,Howard,IN,469025736,40.466315,-86.122082,Kokomo Housing Authority,,,,,,,
GARDEN SQUARE,800 E Hoffer St,Kokomo,Howard,IN,469025736,40.466315,-86.122082,Kokomo Housing Authority,,,,,,,
GARDEN SQUARE,800 E Hoffer St,Kokomo,Howard,IN,469025736,40.466315,-86.122082,Kokomo Housing Authority,,,,,,,
GARDEN SQUARE,800 E Hoffer St,Kokomo,Howard,IN,469025736,40.466315,-86.122082,Kokomo Housing Authority,,,,,,,
GARDEN SQUARE,800 E Hoffer St,Kokomo,Howard,IN,469025736,40.466315,-86.122082,Kokomo Housing Authority,,,,,,,
GARDEN SQUARE,800 E Hoffer St,Kokomo,Howard,IN,469025736,40.466315,-86.122082,Kokomo Housing Authority,,,,,,,
GARDEN SQUARE,800 E Hoffer St,Kokomo,Howard,IN,469025736,40.466315,-86.122082,Kokomo Housing Authority,,,,,,,
DUNBAR COURT,906 N Purdum St,Kokomo,Howard,IN,469013075,40.493607,-86.124232,Kokomo Housing Authority,,,,,,,
DUNBAR COURT,906 N Purdum St,Kokomo,Howard,IN,469013075,40.493607,-86.124232,Kokomo Housing Authority,,,,,,,
DUNBAR COURT,906 N Purdum St,Kokomo,Howard,IN,469013075,40.493607,-86.124232,Kokomo Housing Authority,,,,,,,
DUNBAR COURT,906 N Purdum St,Kokomo,Howard,IN,469013075,40.493607,-86.124232,Kokomo Housing Authority,,,,,,,
DUNBAR COURT,906 N Purdum St,Kokomo,Howard,IN,469013075,40.493607,-86.124232,Kokomo Housing Authority,,,,,,,
DUNBAR COURT,906 N Purdum St,Kokomo,Howard,IN,469013075,40.493607,-86.124232,Kokomo Housing Authority,,,,,,,
DUNBAR COURT,906 N Purdum St,Kokomo,Howard,IN,469013075,40.493607,-86.124232,Kokomo Housing Authority,,,,,,,
TERRACE TOWER,605 S Bell St,Kokomo,Howard,IN,469015553,40.481423,-86.125974,Kokomo Housing Authority,,,,,,,
TERRACE TOWER,605 S Bell St,Kokomo,Howard,IN,469015553,40.481423,-86.125974,Kokomo Housing Authority,,,,,,,
TERRACE TOWER,605 S Bell St,Kokomo,Howard,IN,469015553,40.481423,-86.125974,Kokomo Housing Authority,,,,,,,
TERRACE TOWER,605 S Bell St,Kokomo,Howard,IN,469015553,40.481423,-86.125974,Kokomo Housing Authority,,,,,,,
TERRACE TOWER,605 S Bell St,Kokomo,Howard,IN,469015553,40.481423,-86.125974,Kokomo Housing Authority,,,,,,,
TERRACE TOWER,605 S Bell St,Kokomo,Howard,IN,469015553,40.481423,-86.125974,Kokomo Housing Authority,,,,,,,
TERRACE TOWER,605 S Bell St,Kokomo,Howard,IN,469015553,40.481423,-86.125974,Kokomo Housing Authority,,,,,,,
CIVIC CENTER TOWER,200 E Taylor St,Kokomo,Howard,IN,469014791,40.489461,-86.130027,Kokomo Housing Authority,,,,,,,
CIVIC CENTER TOWER,200 E Taylor St,Kokomo,Howard,IN,469014791,40.489461,-86.130027,Kokomo Housing Authority,,,,,,,
CIVIC CENTER TOWER,200 E Taylor St,Kokomo,Howard,IN,469014791,40.489461,-86.130027,Kokomo Housing Authority,,,,,,,
CIVIC CENTER TOWER,200 E Taylor St,Kokomo,Howard,IN,469014791,40.489461,-86.130027,Kokomo Housing Authority,,,,,,,
CIVIC CENTER TOWER,200 E Taylor St,Kokomo,Howard,IN,469014791,40.489461,-86.130027,Kokomo Housing Authority,,,,,,,
CIVIC CENTER TOWER,200 E Taylor St,Kokomo,Howard,IN,469014791,40.489461,-86.130027,Kokomo Housing Authority,,,,,,,
PINE VALLEY,100 W County Road  300 S,Kokomo,Howard,IN,469025139,40.433537,-86.129592,Kokomo Housing Authority,,,,,,,
PINE VALLEY,100 W County Road  300 S,Kokomo,Howard,IN,469025139,40.433537,-86.129592,Kokomo Housing Authority,,,,,,,
PINE VALLEY,100 W County Road  300 S,Kokomo,Howard,IN,469025139,40.433537,-86.129592,Kokomo Housing Authority,,,,,,,
PINE VALLEY,100 W County Road  300 S,Kokomo,Howard,IN,469025139,40.433537,-86.129592,Kokomo Housing Authority,,,,,,,
PINE VALLEY,100 W County Road  300 S,Kokomo,Howard,IN,469025139,40.433537,-86.129592,Kokomo Housing Authority,,,,,,,
PINE VALLEY,100 W County Road  300 S,Kokomo,Howard,IN,469025139,40.433537,-86.129592,Kokomo Housing Authority,,,,,,,
PINE VALLEY,100 W County Road  300 S,Kokomo,Howard,IN,469025139,40.433537,-86.129592,Kokomo Housing Authority,,,,,,,
KOKOMO PUBLIC HOUSING,1612 Gleneagles Dr,Kokomo,Howard,IN,469023181,40.455123,-86.15442,Kokomo Housing Authority,,,,,,,
KOKOMO PUBLIC HOUSING,1612 Gleneagles Dr,Kokomo,Howard,IN,469023181,40.455123,-86.15442,Kokomo Housing Authority,,,,,,,
KOKOMO PUBLIC HOUSING,1612 Gleneagles Dr,Kokomo,Howard,IN,469023181,40.455123,-86.15442,Kokomo Housing Authority,,,,,,,
KOKOMO PUBLIC HOUSING,1612 Gleneagles Dr,Kokomo,Howard,IN,469023181,40.455123,-86.15442,Kokomo Housing Authority,,,,,,,
KOKOMO PUBLIC HOUSING,1612 Gleneagles Dr,Kokomo,Howard,IN,469023181,40.455123,-86.15442,Kokomo Housing Authority,,,,,,,
KOKOMO PUBLIC HOUSING,1612 Gleneagles Dr,Kokomo,Howard,IN,469023181,40.455123,-86.15442,Kokomo Housing Authority,,,,,,,
KOKOMO PUBLIC HOUSING,1612 Gleneagles Dr,Kokomo,Howard,IN,469023181,40.455123,-86.15442,Kokomo Housing Authority,,,,,,,
KOKOMO PHA,1505 Buick Ln,Kokomo,Howard,IN,469022523,40.470052,-86.101129,Kokomo Housing Authority,,,,,,,
KOKOMO PHA,1505 Buick Ln,Kokomo,Howard,IN,469022523,40.470052,-86.101129,Kokomo Housing Authority,,,,,,,
KOKOMO PHA,1505 Buick Ln,Kokomo,Howard,IN,469022523,40.470052,-86.101129,Kokomo Housing Authority,,,,,,,
KOKOMO PHA,1505 Buick Ln,Kokomo,Howard,IN,469022523,40.470052,-86.101129,Kokomo Housing Authority,,,,,,,
KOKOMO PHA,1505 Buick Ln,Kokomo,Howard,IN,469022523,40.470052,-86.101129,Kokomo Housing Authority,,,,,,,
KOKOMO PHA,1505 Buick Ln,Kokomo,Howard,IN,469022523,40.470052,-86.101129,Kokomo Housing Authority,,,,,,,
KOKOMO PHA,1505 Buick Ln,Kokomo,Howard,IN,469022523,40.470052,-86.101129,Kokomo Housing Authority,,,,,,,
SUPERIOR STREET APARTMENTS,404 E Superior St,Kokomo,Howard,IN,469014840,40.485729,-86.127484,Kokomo Housing Authority,,,,,,,
SUPERIOR STREET APARTMENTS,404 E Superior St,Kokomo,Howard,IN,469014840,40.485729,-86.127484,Kokomo Housing Authority,,,,,,,
SUPERIOR STREET APARTMENTS,404 E Superior St,Kokomo,Howard,IN,469014840,40.485729,-86.127484,Kokomo Housing Authority,,,,,,,
SUPERIOR STREET APARTMENTS,404 E Superior St,Kokomo,Howard,IN,469014840,40.485729,-86.127484,Kokomo Housing Authority,,,,,,,
SUPERIOR STREET APARTMENTS,404 E Superior St,Kokomo,Howard,IN,469014840,40.485729,-86.127484,Kokomo Housing Authority,,,,,,,
SUPERIOR STREET APARTMENTS,404 E Superior St,Kokomo,Howard,IN,469014840,40.485729,-86.127484,Kokomo Housing Authority,,,,,,,
SUPERIOR STREET APARTMENTS,404 E Superior St,Kokomo,Howard,IN,469014840,40.485729,-86.127484,Kokomo Housing Authority,,,,,,,
MERLE HENDERSON APARTMENTS,81 S 14th St,Richmond,Wayne,IN,473745666,39.827674,-84.883016,Housing Authority of the City of Richmond,,,,,,,
MERLE HENDERSON APARTMENTS,81 S 14th St,Richmond,Wayne,IN,473745666,39.827674,-84.883016,Housing Authority of the City of Richmond,,,,,,,
MERLE HENDERSON APARTMENTS,81 S 14th St,Richmond,Wayne,IN,473745666,39.827674,-84.883016,Housing Authority of the City of Richmond,,,,,,,
MERLE HENDERSON APARTMENTS,81 S 14th St,Richmond,Wayne,IN,473745666,39.827674,-84.883016,Housing Authority of the City of Richmond,,,,,,,
MERLE HENDERSON APARTMENTS,81 S 14th St,Richmond,Wayne,IN,473745666,39.827674,-84.883016,Housing Authority of the City of Richmond,,,,,,,
SOUTHVIEW APTS,1101 S 16th St Apt D,Richmond,Wayne,IN,473746583,39.814852,-84.880363,Housing Authority of the City of Richmond,,,,,,,
SOUTHVIEW APTS,1101 S 16th St Apt D,Richmond,Wayne,IN,473746583,39.814852,-84.880363,Housing Authority of the City of Richmond,,,,,,,
SOUTHVIEW APTS,1101 S 16th St Apt D,Richmond,Wayne,IN,473746583,39.814852,-84.880363,Housing Authority of the City of Richmond,,,,,,,
SOUTHVIEW APTS,1101 S 16th St Apt D,Richmond,Wayne,IN,473746583,39.814852,-84.880363,Housing Authority of the City of Richmond,,,,,,,
SOUTHVIEW APTS,1101 S 16th St Apt D,Richmond,Wayne,IN,473746583,39.814852,-84.880363,Housing Authority of the City of Richmond,,,,,,,
JERRY GEIER APARTMENTS,2001 W Main St Apt C7,Richmond,Wayne,IN,473743866,39.829047,-84.92818,Housing Authority of the City of Richmond,,,,,,,
JERRY GEIER APARTMENTS,2001 W Main St Apt C7,Richmond,Wayne,IN,473743866,39.829047,-84.92818,Housing Authority of the City of Richmond,,,,,,,
JERRY GEIER APARTMENTS,2001 W Main St Apt C7,Richmond,Wayne,IN,473743866,39.829047,-84.92818,Housing Authority of the City of Richmond,,,,,,,
JERRY GEIER APARTMENTS,2001 W Main St Apt C7,Richmond,Wayne,IN,473743866,39.829047,-84.92818,Housing Authority of the City of Richmond,,,,,,,
JERRY GEIER APARTMENTS,2001 W Main St Apt C7,Richmond,Wayne,IN,473743866,39.829047,-84.92818,Housing Authority of the City of Richmond,,,,,,,
"ROBERT F. ""BOBBY"" SMITH APART",1407 N H St Apt 1B,Richmond,Wayne,IN,473742575,39.838492,-84.88225,Housing Authority of the City of Richmond,,,,,,,
"ROBERT F. ""BOBBY"" SMITH APART",1407 N H St Apt 1B,Richmond,Wayne,IN,473742575,39.838492,-84.88225,Housing Authority of the City of Richmond,,,,,,,
"ROBERT F. ""BOBBY"" SMITH APART",1407 N H St Apt 1B,Richmond,Wayne,IN,473742575,39.838492,-84.88225,Housing Authority of the City of Richmond,,,,,,,
"ROBERT F. ""BOBBY"" SMITH APART",1407 N H St Apt 1B,Richmond,Wayne,IN,473742575,39.838492,-84.88225,Housing Authority of the City of Richmond,,,,,,,
"ROBERT F. ""BOBBY"" SMITH APART",1407 N H St Apt 1B,Richmond,Wayne,IN,473742575,39.838492,-84.88225,Housing Authority of the City of Richmond,,,,,,,
COLUMBIA CENTER,7439 Linden Pl,Hammond,Lake,IN,463242836,41.577842,-87.498126,Housing Authority of the City of Hammond,,,,,,,
COLUMBIA CENTER,7439 Linden Pl,Hammond,Lake,IN,463242836,41.577842,-87.498126,Housing Authority of the City of Hammond,,,,,,,
COLUMBIA CENTER,7439 Linden Pl,Hammond,Lake,IN,463242836,41.577842,-87.498126,Housing Authority of the City of Hammond,,,,,,,
COLUMBIA CENTER,7439 Linden Pl,Hammond,Lake,IN,463242836,41.577842,-87.498126,Housing Authority of the City of Hammond,,,,,,,
TURNER PARK,4923 Hohman Ave Apt 403A,Hammond,Lake,IN,463201559,41.624355,-87.51811,Housing Authority of the City of Hammond,,,,,,,
TURNER PARK,4923 Hohman Ave Apt 403A,Hammond,Lake,IN,463201559,41.624355,-87.51811,Housing Authority of the City of Hammond,,,,,,,
TURNER PARK,4923 Hohman Ave Apt 403A,Hammond,Lake,IN,463201559,41.624355,-87.51811,Housing Authority of the City of Hammond,,,,,,,
TURNER PARK,4923 Hohman Ave Apt 403A,Hammond,Lake,IN,463201559,41.624355,-87.51811,Housing Authority of the City of Hammond,,,,,,,
DELANEY COMMUNITY,2140 Harrison St,Gary,Lake,IN,464072940,41.579674,-87.346696,Housing Authority of the City of Gary,,,,,,,
DELANEY COMMUNITY,2140 Harrison St,Gary,Lake,IN,464072940,41.579674,-87.346696,Housing Authority of the City of Gary,,,,,,,
DELANEY COMMUNITY,2140 Harrison St,Gary,Lake,IN,464072940,41.579674,-87.346696,Housing Authority of the City of Gary,,,,,,,
DELANEY COMMUNITY,2140 Harrison St,Gary,Lake,IN,464072940,41.579674,-87.346696,Housing Authority of the City of Gary,,,,,,,
DELANEY COMMUNITY,2140 Harrison St,Gary,Lake,IN,464072940,41.579674,-87.346696,Housing Authority of the City of Gary,,,,,,,
DELANEY COMMUNITY,2140 Harrison St,Gary,Lake,IN,464072940,41.579674,-87.346696,Housing Authority of the City of Gary,,,,,,,
DELANEY COMMUNITY,2140 Harrison St,Gary,Lake,IN,464072940,41.579674,-87.346696,Housing Authority of the City of Gary,,,,,,,
DELANEY COMMUNITY,2140 Harrison St,Gary,Lake,IN,464072940,41.579674,-87.346696,Housing Authority of the City of Gary,,,,,,,
DELANEY COMMUNITY,2140 Harrison St,Gary,Lake,IN,464072940,41.579674,-87.346696,Housing Authority of the City of Gary,,,,,,,
IVANHOE GARDENS,3320 W 10th Pl,Gary,Lake,IN,464041908,41.59275,-87.378675,Housing Authority of the City of Gary,,,,,,,
IVANHOE GARDENS,3320 W 10th Pl,Gary,Lake,IN,464041908,41.59275,-87.378675,Housing Authority of the City of Gary,,,,,,,
IVANHOE GARDENS,3320 W 10th Pl,Gary,Lake,IN,464041908,41.59275,-87.378675,Housing Authority of the City of Gary,,,,,,,
IVANHOE GARDENS,3320 W 10th Pl,Gary,Lake,IN,464041908,41.59275,-87.378675,Housing Authority of the City of Gary,,,,,,,
IVANHOE GARDENS,3320 W 10th Pl,Gary,Lake,IN,464041908,41.59275,-87.378675,Housing Authority of the City of Gary,,,,,,,
IVANHOE GARDENS,3320 W 10th Pl,Gary,Lake,IN,464041908,41.59275,-87.378675,Housing Authority of the City of Gary,,,,,,,
IVANHOE GARDENS,3320 W 10th Pl,Gary,Lake,IN,464041908,41.59275,-87.378675,Housing Authority of the City of Gary,,,,,,,
IVANHOE GARDENS,3320 W 10th Pl,Gary,Lake,IN,464041908,41.59275,-87.378675,Housing Authority of the City of Gary,,,,,,,
DELANEY WEST,2273 Fillmore St,Gary,Lake,IN,464072931,41.577397,-87.350321,Housing Authority of the City of Gary,,,,,,,
DELANEY WEST,2273 Fillmore St,Gary,Lake,IN,464072931,41.577397,-87.350321,Housing Authority of the City of Gary,,,,,,,
DELANEY WEST,2273 Fillmore St,Gary,Lake,IN,464072931,41.577397,-87.350321,Housing Authority of the City of Gary,,,,,,,
DELANEY WEST,2273 Fillmore St,Gary,Lake,IN,464072931,41.577397,-87.350321,Housing Authority of the City of Gary,,,,,,,
DELANEY WEST,2273 Fillmore St,Gary,Lake,IN,464072931,41.577397,-87.350321,Housing Authority of the City of Gary,,,,,,,
DELANEY WEST,2273 Fillmore St,Gary,Lake,IN,464072931,41.577397,-87.350321,Housing Authority of the City of Gary,,,,,,,
DELANEY WEST,2273 Fillmore St,Gary,Lake,IN,464072931,41.577397,-87.350321,Housing Authority of the City of Gary,,,,,,,
DELANEY WEST,2273 Fillmore St,Gary,Lake,IN,464072931,41.577397,-87.350321,Housing Authority of the City of Gary,,,,,,,
DORIE MILLER,1809 E 20th Ave,Gary,Lake,IN,464071627,41.581162,-87.314738,Housing Authority of the City of Gary,,,,,,,
DORIE MILLER,1809 E 20th Ave,Gary,Lake,IN,464071627,41.581162,-87.314738,Housing Authority of the City of Gary,,,,,,,
DORIE MILLER,1809 E 20th Ave,Gary,Lake,IN,464071627,41.581162,-87.314738,Housing Authority of the City of Gary,,,,,,,
DORIE MILLER,1809 E 20th Ave,Gary,Lake,IN,464071627,41.581162,-87.314738,Housing Authority of the City of Gary,,,,,,,
DORIE MILLER,1809 E 20th Ave,Gary,Lake,IN,464071627,41.581162,-87.314738,Housing Authority of the City of Gary,,,,,,,
DORIE MILLER,1809 E 20th Ave,Gary,Lake,IN,464071627,41.581162,-87.314738,Housing Authority of the City of Gary,,,,,,,
DORIE MILLER,1809 E 20th Ave,Gary,Lake,IN,464071627,41.581162,-87.314738,Housing Authority of the City of Gary,,,,,,,
DORIE MILLER,1809 E 20th Ave,Gary,Lake,IN,464071627,41.581162,-87.314738,Housing Authority of the City of Gary,,,,,,,
DORIE MILLER,1809 E 20th Ave,Gary,Lake,IN,464071627,41.581162,-87.314738,Housing Authority of the City of Gary,,,,,,,
DORIE MILLER EASTPOINT,2407 Central Ave,Gary,Lake,IN,464071743,41.581923,-87.308117,Housing Authority of the City of Gary,,,,,,,
DORIE MILLER EASTPOINT,2407 Central Ave,Gary,Lake,IN,464071743,41.581923,-87.308117,Housing Authority of the City of Gary,,,,,,,
DORIE MILLER EASTPOINT,2407 Central Ave,Gary,Lake,IN,464071743,41.581923,-87.308117,Housing Authority of the City of Gary,,,,,,,
DORIE MILLER EASTPOINT,2407 Central Ave,Gary,Lake,IN,464071743,41.581923,-87.308117,Housing Authority of the City of Gary,,,,,,,
DORIE MILLER EASTPOINT,2407 Central Ave,Gary,Lake,IN,464071743,41.581923,-87.308117,Housing Authority of the City of Gary,,,,,,,
DORIE MILLER EASTPOINT,2407 Central Ave,Gary,Lake,IN,464071743,41.581923,-87.308117,Housing Authority of the City of Gary,,,,,,,
DORIE MILLER EASTPOINT,2407 Central Ave,Gary,Lake,IN,464071743,41.581923,-87.308117,Housing Authority of the City of Gary,,,,,,,
DORIE MILLER EASTPOINT,2407 Central Ave,Gary,Lake,IN,464071743,41.581923,-87.308117,Housing Authority of the City of Gary,,,,,,,
DORIE MILLER EASTPOINT,2407 Central Ave,Gary,Lake,IN,464071743,41.581923,-87.308117,Housing Authority of the City of Gary,,,,,,,
SENIOR CITIZENS,3280 Pierce St,Gary,Lake,IN,464081188,41.559181,-87.351272,Housing Authority of the City of Gary,,,,,,,
SENIOR CITIZENS,3280 Pierce St,Gary,Lake,IN,464081188,41.559181,-87.351272,Housing Authority of the City of Gary,,,,,,,
SENIOR CITIZENS,3280 Pierce St,Gary,Lake,IN,464081188,41.559181,-87.351272,Housing Authority of the City of Gary,,,,,,,
SENIOR CITIZENS,3280 Pierce St,Gary,Lake,IN,464081188,41.559181,-87.351272,Housing Authority of the City of Gary,,,,,,,
SENIOR CITIZENS,3280 Pierce St,Gary,Lake,IN,464081188,41.559181,-87.351272,Housing Authority of the City of Gary,,,,,,,
SENIOR CITIZENS,3280 Pierce St,Gary,Lake,IN,464081188,41.559181,-87.351272,Housing Authority of the City of Gary,,,,,,,
SENIOR CITIZENS,3280 Pierce St,Gary,Lake,IN,464081188,41.559181,-87.351272,Housing Authority of the City of Gary,,,,,,,
SENIOR CITIZENS,3280 Pierce St,Gary,Lake,IN,464081188,41.559181,-87.351272,Housing Authority of the City of Gary,,,,,,,
SENIOR CITIZENS,3280 Pierce St,Gary,Lake,IN,464081188,41.559181,-87.351272,Housing Authority of the City of Gary,,,,,,,
SCATTERED SITES,5032 W 20th Ave,Gary,Lake,IN,464062872,41.582686,-87.398948,Housing Authority of the City of Gary,,,,,,,
SCATTERED SITES,5032 W 20th Ave,Gary,Lake,IN,464062872,41.582686,-87.398948,Housing Authority of the City of Gary,,,,,,,
SCATTERED SITES,5032 W 20th Ave,Gary,Lake,IN,464062872,41.582686,-87.398948,Housing Authority of the City of Gary,,,,,,,
SCATTERED SITES,5032 W 20th Ave,Gary,Lake,IN,464062872,41.582686,-87.398948,Housing Authority of the City of Gary,,,,,,,
SCATTERED SITES,5032 W 20th Ave,Gary,Lake,IN,464062872,41.582686,-87.398948,Housing Authority of the City of Gary,,,,,,,
SCATTERED SITES,5032 W 20th Ave,Gary,Lake,IN,464062872,41.582686,-87.398948,Housing Authority of the City of Gary,,,,,,,
SCATTERED SITES,5032 W 20th Ave,Gary,Lake,IN,464062872,41.582686,-87.398948,Housing Authority of the City of Gary,,,,,,,
SCATTERED SITES,5032 W 20th Ave,Gary,Lake,IN,464062872,41.582686,-87.398948,Housing Authority of the City of Gary,,,,,,,
SCATTERED SITES,5032 W 20th Ave,Gary,Lake,IN,464062872,41.582686,-87.398948,Housing Authority of the City of Gary,,,,,,,
GLENPARK EAST,830 E 35th Ct,Gary,Lake,IN,464091403,41.55461,-87.326541,Housing Authority of the City of Gary,,,,,,,
GLENPARK EAST,830 E 35th Ct,Gary,Lake,IN,464091403,41.55461,-87.326541,Housing Authority of the City of Gary,,,,,,,
GLENPARK EAST,830 E 35th Ct,Gary,Lake,IN,464091403,41.55461,-87.326541,Housing Authority of the City of Gary,,,,,,,
GLENPARK EAST,830 E 35th Ct,Gary,Lake,IN,464091403,41.55461,-87.326541,Housing Authority of the City of Gary,,,,,,,
GLENPARK EAST,830 E 35th Ct,Gary,Lake,IN,464091403,41.55461,-87.326541,Housing Authority of the City of Gary,,,,,,,
GLENPARK EAST,830 E 35th Ct,Gary,Lake,IN,464091403,41.55461,-87.326541,Housing Authority of the City of Gary,,,,,,,
GLENPARK EAST,830 E 35th Ct,Gary,Lake,IN,464091403,41.55461,-87.326541,Housing Authority of the City of Gary,,,,,,,
GLENPARK EAST,830 E 35th Ct,Gary,Lake,IN,464091403,41.55461,-87.326541,Housing Authority of the City of Gary,,,,,,,
GLENPARK EAST,830 E 35th Ct,Gary,Lake,IN,464091403,41.55461,-87.326541,Housing Authority of the City of Gary,,,,,,,
SCATTERED SITES,3412 Tennessee St,Gary,Lake,IN,464091150,41.556611,-87.32229,Housing Authority of the City of Gary,,,,,,,
SCATTERED SITES,3412 Tennessee St,Gary,Lake,IN,464091150,41.556611,-87.32229,Housing Authority of the City of Gary,,,,,,,
SCATTERED SITES,3412 Tennessee St,Gary,Lake,IN,464091150,41.556611,-87.32229,Housing Authority of the City of Gary,,,,,,,
SCATTERED SITES,3412 Tennessee St,Gary,Lake,IN,464091150,41.556611,-87.32229,Housing Authority of the City of Gary,,,,,,,
SCATTERED SITES,3412 Tennessee St,Gary,Lake,IN,464091150,41.556611,-87.32229,Housing Authority of the City of Gary,,,,,,,
SCATTERED SITES,3412 Tennessee St,Gary,Lake,IN,464091150,41.556611,-87.32229,Housing Authority of the City of Gary,,,,,,,
SCATTERED SITES,3412 Tennessee St,Gary,Lake,IN,464091150,41.556611,-87.32229,Housing Authority of the City of Gary,,,,,,,
SCATTERED SITES,3412 Tennessee St,Gary,Lake,IN,464091150,41.556611,-87.32229,Housing Authority of the City of Gary,,,,,,,
SCATTERED SITES,3412 Tennessee St,Gary,Lake,IN,464091150,41.556611,-87.32229,Housing Authority of the City of Gary,,,,,,,
SENIOR CITIZENS,650 Jackson St,Gary,Lake,IN,464022268,41.599256,-87.344795,Housing Authority of the City of Gary,,,,,,,
SENIOR CITIZENS,650 Jackson St,Gary,Lake,IN,464022268,41.599256,-87.344795,Housing Authority of the City of Gary,,,,,,,
SENIOR CITIZENS,650 Jackson St,Gary,Lake,IN,464022268,41.599256,-87.344795,Housing Authority of the City of Gary,,,,,,,
SENIOR CITIZENS,650 Jackson St,Gary,Lake,IN,464022268,41.599256,-87.344795,Housing Authority of the City of Gary,,,,,,,
SENIOR CITIZENS,650 Jackson St,Gary,Lake,IN,464022268,41.599256,-87.344795,Housing Authority of the City of Gary,,,,,,,
SENIOR CITIZENS,650 Jackson St,Gary,Lake,IN,464022268,41.599256,-87.344795,Housing Authority of the City of Gary,,,,,,,
SENIOR CITIZENS,650 Jackson St,Gary,Lake,IN,464022268,41.599256,-87.344795,Housing Authority of the City of Gary,,,,,,,
SENIOR CITIZENS,650 Jackson St,Gary,Lake,IN,464022268,41.599256,-87.344795,Housing Authority of the City of Gary,,,,,,,
SENIOR CITIZENS,650 Jackson St,Gary,Lake,IN,464022268,41.599256,-87.344795,Housing Authority of the City of Gary,,,,,,,
SCATTERED SITES,5050 W 20th Ave,Gary,Lake,IN,464062872,41.582685,-87.398964,Housing Authority of the City of Gary,,,,,,,
SCATTERED SITES,5050 W 20th Ave,Gary,Lake,IN,464062872,41.582685,-87.398964,Housing Authority of the City of Gary,,,,,,,
SCATTERED SITES,5050 W 20th Ave,Gary,Lake,IN,464062872,41.582685,-87.398964,Housing Authority of the City of Gary,,,,,,,
SCATTERED SITES,5050 W 20th Ave,Gary,Lake,IN,464062872,41.582685,-87.398964,Housing Authority of the City of Gary,,,,,,,
SCATTERED SITES,5050 W 20th Ave,Gary,Lake,IN,464062872,41.582685,-87.398964,Housing Authority of the City of Gary,,,,,,,
SCATTERED SITES,5050 W 20th Ave,Gary,Lake,IN,464062872,41.582685,-87.398964,Housing Authority of the City of Gary,,,,,,,
SCATTERED SITES,5050 W 20th Ave,Gary,Lake,IN,464062872,41.582685,-87.398964,Housing Authority of the City of Gary,,,,,,,
SCATTERED SITES,5050 W 20th Ave,Gary,Lake,IN,464062872,41.582685,-87.398964,Housing Authority of the City of Gary,,,,,,,
SCATTERED SITES,6807 E 5th Pl,Gary,Lake,IN,464032531,41.600695,-87.254983,Housing Authority of the City of Gary,,,,,,,
SCATTERED SITES,6807 E 5th Pl,Gary,Lake,IN,464032531,41.600695,-87.254983,Housing Authority of the City of Gary,,,,,,,
SCATTERED SITES,6807 E 5th Pl,Gary,Lake,IN,464032531,41.600695,-87.254983,Housing Authority of the City of Gary,,,,,,,
SCATTERED SITES,6807 E 5th Pl,Gary,Lake,IN,464032531,41.600695,-87.254983,Housing Authority of the City of Gary,,,,,,,
SCATTERED SITES,6807 E 5th Pl,Gary,Lake,IN,464032531,41.600695,-87.254983,Housing Authority of the City of Gary,,,,,,,
SCATTERED SITES,6807 E 5th Pl,Gary,Lake,IN,464032531,41.600695,-87.254983,Housing Authority of the City of Gary,,,,,,,
SCATTERED SITES,6807 E 5th Pl,Gary,Lake,IN,464032531,41.600695,-87.254983,Housing Authority of the City of Gary,,,,,,,
SCATTERED SITES,6807 E 5th Pl,Gary,Lake,IN,464032531,41.600695,-87.254983,Housing Authority of the City of Gary,,,,,,,
SCATTERED SITES,1013 Madison St,Gary,Lake,IN,464022833,41.593614,-87.341496,Housing Authority of the City of Gary,,,,,,,
SCATTERED SITES,1013 Madison St,Gary,Lake,IN,464022833,41.593614,-87.341496,Housing Authority of the City of Gary,,,,,,,
SCATTERED SITES,1013 Madison St,Gary,Lake,IN,464022833,41.593614,-87.341496,Housing Authority of the City of Gary,,,,,,,
SCATTERED SITES,1013 Madison St,Gary,Lake,IN,464022833,41.593614,-87.341496,Housing Authority of the City of Gary,,,,,,,
SCATTERED SITES,1013 Madison St,Gary,Lake,IN,464022833,41.593614,-87.341496,Housing Authority of the City of Gary,,,,,,,
SCATTERED SITES,1013 Madison St,Gary,Lake,IN,464022833,41.593614,-87.341496,Housing Authority of the City of Gary,,,,,,,
SCATTERED SITES,1013 Madison St,Gary,Lake,IN,464022833,41.593614,-87.341496,Housing Authority of the City of Gary,,,,,,,
SCATTERED SITES,1013 Madison St,Gary,Lake,IN,464022833,41.593614,-87.341496,Housing Authority of the City of Gary,,,,,,,
SCATTERED SITES,1013 Madison St,Gary,Lake,IN,464022833,41.593614,-87.341496,Housing Authority of the City of Gary,,,,,,,
CONCORD ON THE HILL,1772 Burr St,Gary,Lake,IN,464062656,41.585169,-87.403706,Housing Authority of the City of Gary,,,,,,,
CONCORD ON THE HILL,1772 Burr St,Gary,Lake,IN,464062656,41.585169,-87.403706,Housing Authority of the City of Gary,,,,,,,
CONCORD ON THE HILL,1772 Burr St,Gary,Lake,IN,464062656,41.585169,-87.403706,Housing Authority of the City of Gary,,,,,,,
CONCORD ON THE HILL,1772 Burr St,Gary,Lake,IN,464062656,41.585169,-87.403706,Housing Authority of the City of Gary,,,,,,,
CONCORD ON THE HILL,1772 Burr St,Gary,Lake,IN,464062656,41.585169,-87.403706,Housing Authority of the City of Gary,,,,,,,
CONCORD ON THE HILL,1772 Burr St,Gary,Lake,IN,464062656,41.585169,-87.403706,Housing Authority of the City of Gary,,,,,,,
CONCORD ON THE HILL,1772 Burr St,Gary,Lake,IN,464062656,41.585169,-87.403706,Housing Authority of the City of Gary,,,,,,,
CONCORD ON THE HILL,1772 Burr St,Gary,Lake,IN,464062656,41.585169,-87.403706,Housing Authority of the City of Gary,,,,,,,
CONCORD ON THE HILL,1772 Burr St,Gary,Lake,IN,464062656,41.585169,-87.403706,Housing Authority of the City of Gary,,,,,,,
SCATTERED SITES,1406 E 49th Pl,Gary,Lake,IN,464092974,41.528174,-87.319676,Housing Authority of the City of Gary,,,,,,,
SCATTERED SITES,1406 E 49th Pl,Gary,Lake,IN,464092974,41.528174,-87.319676,Housing Authority of the City of Gary,,,,,,,
SCATTERED SITES,1406 E 49th Pl,Gary,Lake,IN,464092974,41.528174,-87.319676,Housing Authority of the City of Gary,,,,,,,
SCATTERED SITES,1406 E 49th Pl,Gary,Lake,IN,464092974,41.528174,-87.319676,Housing Authority of the City of Gary,,,,,,,
SCATTERED SITES,1406 E 49th Pl,Gary,Lake,IN,464092974,41.528174,-87.319676,Housing Authority of the City of Gary,,,,,,,
SCATTERED SITES,1406 E 49th Pl,Gary,Lake,IN,464092974,41.528174,-87.319676,Housing Authority of the City of Gary,,,,,,,
SCATTERED SITES,1406 E 49th Pl,Gary,Lake,IN,464092974,41.528174,-87.319676,Housing Authority of the City of Gary,,,,,,,
SCATTERED SITES,1406 E 49th Pl,Gary,Lake,IN,464092974,41.528174,-87.319676,Housing Authority of the City of Gary,,,,,,,
SCATTERED SITES,1406 E 49th Pl,Gary,Lake,IN,464092974,41.528174,-87.319676,Housing Authority of the City of Gary,,,,,,,
BROADWAY MANOR,10 W 13th Ave,Gary,Lake,IN,464071303,41.590241,-87.337201,Housing Authority of the City of Gary,,,,,,,
BROADWAY MANOR,10 W 13th Ave,Gary,Lake,IN,464071303,41.590241,-87.337201,Housing Authority of the City of Gary,,,,,,,
BROADWAY MANOR,10 W 13th Ave,Gary,Lake,IN,464071303,41.590241,-87.337201,Housing Authority of the City of Gary,,,,,,,
BROADWAY MANOR,10 W 13th Ave,Gary,Lake,IN,464071303,41.590241,-87.337201,Housing Authority of the City of Gary,,,,,,,
BROADWAY MANOR,10 W 13th Ave,Gary,Lake,IN,464071303,41.590241,-87.337201,Housing Authority of the City of Gary,,,,,,,
BROADWAY MANOR,10 W 13th Ave,Gary,Lake,IN,464071303,41.590241,-87.337201,Housing Authority of the City of Gary,,,,,,,
BROADWAY MANOR,10 W 13th Ave,Gary,Lake,IN,464071303,41.590241,-87.337201,Housing Authority of the City of Gary,,,,,,,
BROADWAY MANOR,10 W 13th Ave,Gary,Lake,IN,464071303,41.590241,-87.337201,Housing Authority of the City of Gary,,,,,,,
BROADWAY MANOR,10 W 13th Ave,Gary,Lake,IN,464071303,41.590241,-87.337201,Housing Authority of the City of Gary,,,,,,,
SCATTERED SITES,218 Hamlin St,Gary,Lake,IN,464061337,41.606771,-87.412212,Housing Authority of the City of Gary,,,,,,,
SCATTERED SITES,218 Hamlin St,Gary,Lake,IN,464061337,41.606771,-87.412212,Housing Authority of the City of Gary,,,,,,,
SCATTERED SITES,218 Hamlin St,Gary,Lake,IN,464061337,41.606771,-87.412212,Housing Authority of the City of Gary,,,,,,,
SCATTERED SITES,218 Hamlin St,Gary,Lake,IN,464061337,41.606771,-87.412212,Housing Authority of the City of Gary,,,,,,,
SCATTERED SITES,218 Hamlin St,Gary,Lake,IN,464061337,41.606771,-87.412212,Housing Authority of the City of Gary,,,,,,,
SCATTERED SITES,218 Hamlin St,Gary,Lake,IN,464061337,41.606771,-87.412212,Housing Authority of the City of Gary,,,,,,,
SCATTERED SITES,218 Hamlin St,Gary,Lake,IN,464061337,41.606771,-87.412212,Housing Authority of the City of Gary,,,,,,,
SCATTERED SITES,218 Hamlin St,Gary,Lake,IN,464061337,41.606771,-87.412212,Housing Authority of the City of Gary,,,,,,,
SCATTERED SITES,218 Hamlin St,Gary,Lake,IN,464061337,41.606771,-87.412212,Housing Authority of the City of Gary,,,,,,,
LEASED ELDERLY HIGHRISE,100 W 11th Ave,Gary,Lake,IN,464022935,41.591995,-87.338329,Housing Authority of the City of Gary,,,,,,,
LEASED ELDERLY HIGHRISE,100 W 11th Ave,Gary,Lake,IN,464022935,41.591995,-87.338329,Housing Authority of the City of Gary,,,,,,,
LEASED ELDERLY HIGHRISE,100 W 11th Ave,Gary,Lake,IN,464022935,41.591995,-87.338329,Housing Authority of the City of Gary,,,,,,,
LEASED ELDERLY HIGHRISE,100 W 11th Ave,Gary,Lake,IN,464022935,41.591995,-87.338329,Housing Authority of the City of Gary,,,,,,,
LEASED ELDERLY HIGHRISE,100 W 11th Ave,Gary,Lake,IN,464022935,41.591995,-87.338329,Housing Authority of the City of Gary,,,,,,,
LEASED ELDERLY HIGHRISE,100 W 11th Ave,Gary,Lake,IN,464022935,41.591995,-87.338329,Housing Authority of the City of Gary,,,,,,,
LEASED ELDERLY HIGHRISE,100 W 11th Ave,Gary,Lake,IN,464022935,41.591995,-87.338329,Housing Authority of the City of Gary,,,,,,,
LEASED ELDERLY HIGHRISE,100 W 11th Ave,Gary,Lake,IN,464022935,41.591995,-87.338329,Housing Authority of the City of Gary,,,,,,,
LEASED ELDERLY HIGHRISE,100 W 11th Ave,Gary,Lake,IN,464022935,41.591995,-87.338329,Housing Authority of the City of Gary,,,,,,,
ELDERLY HIGHRISE,578 Broadway,Gary,Lake,IN,464021900,41.600997,-87.33743,Housing Authority of the City of Gary,,,,,,,
ELDERLY HIGHRISE,578 Broadway,Gary,Lake,IN,464021900,41.600997,-87.33743,Housing Authority of the City of Gary,,,,,,,
ELDERLY HIGHRISE,578 Broadway,Gary,Lake,IN,464021900,41.600997,-87.33743,Housing Authority of the City of Gary,,,,,,,
ELDERLY HIGHRISE,578 Broadway,Gary,Lake,IN,464021900,41.600997,-87.33743,Housing Authority of the City of Gary,,,,,,,
ELDERLY HIGHRISE,578 Broadway,Gary,Lake,IN,464021900,41.600997,-87.33743,Housing Authority of the City of Gary,,,,,,,
ELDERLY HIGHRISE,578 Broadway,Gary,Lake,IN,464021900,41.600997,-87.33743,Housing Authority of the City of Gary,,,,,,,
ELDERLY HIGHRISE,578 Broadway,Gary,Lake,IN,464021900,41.600997,-87.33743,Housing Authority of the City of Gary,,,,,,,
ELDERLY HIGHRISE,578 Broadway,Gary,Lake,IN,464021900,41.600997,-87.33743,Housing Authority of the City of Gary,,,,,,,
ELDERLY HIGHRISE,578 Broadway,Gary,Lake,IN,464021900,41.600997,-87.33743,Housing Authority of the City of Gary,,,,,,,
Duneland,357 Old Duneland Pkwy,Gary,Lake,IN,464032400,41.6116,-87.266,Housing Authority of the City of Gary,,,,,,,
Duneland,357 Old Duneland Pkwy,Gary,Lake,IN,464032400,41.6116,-87.266,Housing Authority of the City of Gary,,,,,,,
Horace Mann Apartments,642 Washington St,Gary,Lake,IN,464022402,41.599448,-87.338666,Housing Authority of the City of Gary,,,,,,,
Homeownership,324 S Hamilton St,Gary,Lake,IN,464032356,41.603825,-87.269507,Housing Authority of the City of Gary,,,,,,,
BEECHWOOD,301 Doolittle Dr,New Albany,Floyd,IN,471503812,38.305483,-85.814161,Housing Authority of the City of New Albany,,,,,,,
BEECHWOOD,301 Doolittle Dr,New Albany,Floyd,IN,471503812,38.305483,-85.814161,Housing Authority of the City of New Albany,,,,,,,
BEECHWOOD,301 Doolittle Dr,New Albany,Floyd,IN,471503812,38.305483,-85.814161,Housing Authority of the City of New Albany,,,,,,,
BEECHWOOD,301 Doolittle Dr,New Albany,Floyd,IN,471503812,38.305483,-85.814161,Housing Authority of the City of New Albany,,,,,,,
BEECHWOOD,301 Doolittle Dr,New Albany,Floyd,IN,471503812,38.305483,-85.814161,Housing Authority of the City of New Albany,,,,,,,
CRYSTAL COURT,407 Crystal Ct,New Albany,Floyd,IN,471504867,38.2916,-85.8311,Housing Authority of the City of New Albany,,,,,,,
CRYSTAL COURT,407 Crystal Ct,New Albany,Floyd,IN,471504867,38.2916,-85.8311,Housing Authority of the City of New Albany,,,,,,,
CRYSTAL COURT,407 Crystal Ct,New Albany,Floyd,IN,471504867,38.2916,-85.8311,Housing Authority of the City of New Albany,,,,,,,
CRYSTAL COURT,407 Crystal Ct,New Albany,Floyd,IN,471504867,38.2916,-85.8311,Housing Authority of the City of New Albany,,,,,,,
CRYSTAL COURT,407 Crystal Ct,New Albany,Floyd,IN,471504867,38.2916,-85.8311,Housing Authority of the City of New Albany,,,,,,,
PARKVIEW,148 Woodland Dr,New Albany,Floyd,IN,471504123,38.297441,-85.824826,Housing Authority of the City of New Albany,,,,,,,
PARKVIEW,148 Woodland Dr,New Albany,Floyd,IN,471504123,38.297441,-85.824826,Housing Authority of the City of New Albany,,,,,,,
PARKVIEW,148 Woodland Dr,New Albany,Floyd,IN,471504123,38.297441,-85.824826,Housing Authority of the City of New Albany,,,,,,,
PARKVIEW,148 Woodland Dr,New Albany,Floyd,IN,471504123,38.297441,-85.824826,Housing Authority of the City of New Albany,,,,,,,
PARKVIEW,148 Woodland Dr,New Albany,Floyd,IN,471504123,38.297441,-85.824826,Housing Authority of the City of New Albany,,,,,,,
WM VANCE,30 William O Vance Ct,New Albany,Floyd,IN,471504854,38.294743,-85.833442,Housing Authority of the City of New Albany,,,,,,,
WM VANCE,30 William O Vance Ct,New Albany,Floyd,IN,471504854,38.294743,-85.833442,Housing Authority of the City of New Albany,,,,,,,
WM VANCE,30 William O Vance Ct,New Albany,Floyd,IN,471504854,38.294743,-85.833442,Housing Authority of the City of New Albany,,,,,,,
WM VANCE,30 William O Vance Ct,New Albany,Floyd,IN,471504854,38.294743,-85.833442,Housing Authority of the City of New Albany,,,,,,,
WM VANCE,30 William O Vance Ct,New Albany,Floyd,IN,471504854,38.294743,-85.833442,Housing Authority of the City of New Albany,,,,,,,
BROADMEADE TERRACE,1229 Minton Dr,New Albany,Floyd,IN,471504112,38.296361,-85.825225,Housing Authority of the City of New Albany,,,,,,,
BROADMEADE TERRACE,1229 Minton Dr,New Albany,Floyd,IN,471504112,38.296361,-85.825225,Housing Authority of the City of New Albany,,,,,,,
BROADMEADE TERRACE,1229 Minton Dr,New Albany,Floyd,IN,471504112,38.296361,-85.825225,Housing Authority of the City of New Albany,,,,,,,
BROADMEADE TERRACE,1229 Minton Dr,New Albany,Floyd,IN,471504112,38.296361,-85.825225,Housing Authority of the City of New Albany,,,,,,,
BROADMEADE TERRACE,1229 Minton Dr,New Albany,Floyd,IN,471504112,38.296361,-85.825225,Housing Authority of the City of New Albany,,,,,,,
PARKVIEW TOWERS,125 Fischer Dr,New Albany,Floyd,IN,471504110,38.30067,-85.828798,Housing Authority of the City of New Albany,,,,,,,
PARKVIEW TOWERS,125 Fischer Dr,New Albany,Floyd,IN,471504110,38.30067,-85.828798,Housing Authority of the City of New Albany,,,,,,,
PARKVIEW TOWERS,125 Fischer Dr,New Albany,Floyd,IN,471504110,38.30067,-85.828798,Housing Authority of the City of New Albany,,,,,,,
PARKVIEW TOWERS,125 Fischer Dr,New Albany,Floyd,IN,471504110,38.30067,-85.828798,Housing Authority of the City of New Albany,,,,,,,
PARKVIEW TOWERS,125 Fischer Dr,New Albany,Floyd,IN,471504110,38.30067,-85.828798,Housing Authority of the City of New Albany,,,,,,,
RIVERVIEW TOWERS,500 Scribner Dr,New Albany,Floyd,IN,471503644,38.286162,-85.826549,Housing Authority of the City of New Albany,,,,,,,
RIVERVIEW TOWERS,500 Scribner Dr,New Albany,Floyd,IN,471503644,38.286162,-85.826549,Housing Authority of the City of New Albany,,,,,,,
RIVERVIEW TOWERS,500 Scribner Dr,New Albany,Floyd,IN,471503644,38.286162,-85.826549,Housing Authority of the City of New Albany,,,,,,,
RIVERVIEW TOWERS,500 Scribner Dr,New Albany,Floyd,IN,471503644,38.286162,-85.826549,Housing Authority of the City of New Albany,,,,,,,
RIVERVIEW TOWERS,500 Scribner Dr,New Albany,Floyd,IN,471503644,38.286162,-85.826549,Housing Authority of the City of New Albany,,,,,,,
RIVERSIDE TERRACE,120 Riverside Dr,New Albany,Floyd,IN,471501685,38.290293,-85.796788,Housing Authority of the City of New Albany,,,,,,,
RIVERSIDE TERRACE,120 Riverside Dr,New Albany,Floyd,IN,471501685,38.290293,-85.796788,Housing Authority of the City of New Albany,,,,,,,
RIVERSIDE TERRACE,120 Riverside Dr,New Albany,Floyd,IN,471501685,38.290293,-85.796788,Housing Authority of the City of New Albany,,,,,,,
RIVERSIDE TERRACE,120 Riverside Dr,New Albany,Floyd,IN,471501685,38.290293,-85.796788,Housing Authority of the City of New Albany,,,,,,,
RIVERSIDE TERRACE,120 Riverside Dr,New Albany,Floyd,IN,471501685,38.290293,-85.796788,Housing Authority of the City of New Albany,,,,,,,
MARK ELROD TOWER,1 Wolfe Trce,New Albany,Floyd,IN,471504136,38.307022,-85.826735,Housing Authority of the City of New Albany,,,,,,,
MARK ELROD TOWER,1 Wolfe Trce,New Albany,Floyd,IN,471504136,38.307022,-85.826735,Housing Authority of the City of New Albany,,,,,,,
MARK ELROD TOWER,1 Wolfe Trce,New Albany,Floyd,IN,471504136,38.307022,-85.826735,Housing Authority of the City of New Albany,,,,,,,
MARK ELROD TOWER,1 Wolfe Trce,New Albany,Floyd,IN,471504136,38.307022,-85.826735,Housing Authority of the City of New Albany,,,,,,,
MARK ELROD TOWER,1 Wolfe Trce,New Albany,Floyd,IN,471504136,38.307022,-85.826735,Housing Authority of the City of New Albany,,,,,,,
PLAZA APTS & MONROE CIR,628 W Western Ave,South Bend,St Joseph,IN,466012767,41.672086,-86.257655,Housing Authority of South Bend,,,,,,,
PLAZA APTS & MONROE CIR,628 W Western Ave,South Bend,St Joseph,IN,466012767,41.672086,-86.257655,Housing Authority of South Bend,,,,,,,
PLAZA APTS & MONROE CIR,628 W Western Ave,South Bend,St Joseph,IN,466012767,41.672086,-86.257655,Housing Authority of South Bend,,,,,,,
PLAZA APTS & MONROE CIR,628 W Western Ave,South Bend,St Joseph,IN,466012767,41.672086,-86.257655,Housing Authority of South Bend,,,,,,,
PLAZA APTS & MONROE CIR,628 W Western Ave,South Bend,St Joseph,IN,466012767,41.672086,-86.257655,Housing Authority of South Bend,,,,,,,
NORTHWEST PLAZA,1013 Laurel Ct,South Bend,St Joseph,IN,466012701,41.67171,-86.263983,Housing Authority of South Bend,,,,,,,
NORTHWEST PLAZA,1013 Laurel Ct,South Bend,St Joseph,IN,466012701,41.67171,-86.263983,Housing Authority of South Bend,,,,,,,
NORTHWEST PLAZA,1013 Laurel Ct,South Bend,St Joseph,IN,466012701,41.67171,-86.263983,Housing Authority of South Bend,,,,,,,
NORTHWEST PLAZA,1013 Laurel Ct,South Bend,St Joseph,IN,466012701,41.67171,-86.263983,Housing Authority of South Bend,,,,,,,
NORTHWEST PLAZA,1013 Laurel Ct,South Bend,St Joseph,IN,466012701,41.67171,-86.263983,Housing Authority of South Bend,,,,,,,
WESTSCOTT APARTMENTS,501 Alonzo Watson Dr Apt 141,South Bend,St Joseph,IN,466013743,41.6607,-86.2387,Housing Authority of South Bend,,,,,,,
WESTSCOTT APARTMENTS,501 Alonzo Watson Dr Apt 141,South Bend,St Joseph,IN,466013743,41.6607,-86.2387,Housing Authority of South Bend,,,,,,,
WESTSCOTT APARTMENTS,501 Alonzo Watson Dr Apt 141,South Bend,St Joseph,IN,466013743,41.6607,-86.2387,Housing Authority of South Bend,,,,,,,
WESTSCOTT APARTMENTS,501 Alonzo Watson Dr Apt 141,South Bend,St Joseph,IN,466013743,41.6607,-86.2387,Housing Authority of South Bend,,,,,,,
WESTSCOTT APARTMENTS,501 Alonzo Watson Dr Apt 141,South Bend,St Joseph,IN,466013743,41.6607,-86.2387,Housing Authority of South Bend,,,,,,,
TURNKEY III,1618 S Olive St,South Bend,St Joseph,IN,466194216,41.656837,-86.282792,Housing Authority of South Bend,,,,,,,
TURNKEY III,1618 S Olive St,South Bend,St Joseph,IN,466194216,41.656837,-86.282792,Housing Authority of South Bend,,,,,,,
TURNKEY III,1618 S Olive St,South Bend,St Joseph,IN,466194216,41.656837,-86.282792,Housing Authority of South Bend,,,,,,,
TURNKEY III,1618 S Olive St,South Bend,St Joseph,IN,466194216,41.656837,-86.282792,Housing Authority of South Bend,,,,,,,
TURNKEY III,1618 S Olive St,South Bend,St Joseph,IN,466194216,41.656837,-86.282792,Housing Authority of South Bend,,,,,,,
TURNKEY III,1802 S Carlisle St,South Bend,St Joseph,IN,466131215,41.6548,-86.280586,Housing Authority of South Bend,,,,,,,
TURNKEY III,1802 S Carlisle St,South Bend,St Joseph,IN,466131215,41.6548,-86.280586,Housing Authority of South Bend,,,,,,,
TURNKEY III,1802 S Carlisle St,South Bend,St Joseph,IN,466131215,41.6548,-86.280586,Housing Authority of South Bend,,,,,,,
HARBER HOMES,302 Boston Dr,South Bend,St Joseph,IN,466191302,41.679141,-86.313963,Housing Authority of South Bend,,,,,,,
HARBER HOMES,302 Boston Dr,South Bend,St Joseph,IN,466191302,41.679141,-86.313963,Housing Authority of South Bend,,,,,,,
HARBER HOMES,302 Boston Dr,South Bend,St Joseph,IN,466191302,41.679141,-86.313963,Housing Authority of South Bend,,,,,,,
HARBER HOMES,302 Boston Dr,South Bend,St Joseph,IN,466191302,41.679141,-86.313963,Housing Authority of South Bend,,,,,,,
HARBER HOMES,302 Boston Dr,South Bend,St Joseph,IN,466191302,41.679141,-86.313963,Housing Authority of South Bend,,,,,,,
SCATTERED SITES,430 Sommers St,South Bend,St Joseph,IN,466172412,41.681015,-86.233958,Housing Authority of South Bend,,,,,,,
SCATTERED SITES,430 Sommers St,South Bend,St Joseph,IN,466172412,41.681015,-86.233958,Housing Authority of South Bend,,,,,,,
SCATTERED SITES,430 Sommers St,South Bend,St Joseph,IN,466172412,41.681015,-86.233958,Housing Authority of South Bend,,,,,,,
SCATTERED SITES,430 Sommers St,South Bend,St Joseph,IN,466172412,41.681015,-86.233958,Housing Authority of South Bend,,,,,,,
SCATTERED SITES,430 Sommers St,South Bend,St Joseph,IN,466172412,41.681015,-86.233958,Housing Authority of South Bend,,,,,,,
SCATTERED SITES,1248 Haney Ave,South Bend,St Joseph,IN,466133013,41.659311,-86.231904,Housing Authority of South Bend,,,,,,,
SCATTERED SITES,1248 Haney Ave,South Bend,St Joseph,IN,466133013,41.659311,-86.231904,Housing Authority of South Bend,,,,,,,
SCATTERED SITES,1248 Haney Ave,South Bend,St Joseph,IN,466133013,41.659311,-86.231904,Housing Authority of South Bend,,,,,,,
SCATTERED SITES,1248 Haney Ave,South Bend,St Joseph,IN,466133013,41.659311,-86.231904,Housing Authority of South Bend,,,,,,,
SCATTERED SITES,1248 Haney Ave,South Bend,St Joseph,IN,466133013,41.659311,-86.231904,Housing Authority of South Bend,,,,,,,
EDISON GRDN & TWYCKENHAM,1219 S Twyckenham Dr,South Bend,St Joseph,IN,466151437,41.662541,-86.225723,Housing Authority of South Bend,,,,,,,
EDISON GRDN & TWYCKENHAM,1219 S Twyckenham Dr,South Bend,St Joseph,IN,466151437,41.662541,-86.225723,Housing Authority of South Bend,,,,,,,
EDISON GRDN & TWYCKENHAM,1219 S Twyckenham Dr,South Bend,St Joseph,IN,466151437,41.662541,-86.225723,Housing Authority of South Bend,,,,,,,
EDISON GRDN & TWYCKENHAM,1219 S Twyckenham Dr,South Bend,St Joseph,IN,466151437,41.662541,-86.225723,Housing Authority of South Bend,,,,,,,
EDISON GRDN & TWYCKENHAM,1219 S Twyckenham Dr,South Bend,St Joseph,IN,466151437,41.662541,-86.225723,Housing Authority of South Bend,,,,,,,
LOW-RENT-PUBLIC-HOUSING,510 S 28th St,South Bend,St Joseph,IN,466152218,41.671204,-86.207827,Housing Authority of South Bend,,,,,,,
LOW-RENT-PUBLIC-HOUSING,510 S 28th St,South Bend,St Joseph,IN,466152218,41.671204,-86.207827,Housing Authority of South Bend,,,,,,,
LOW-RENT-PUBLIC-HOUSING,510 S 28th St,South Bend,St Joseph,IN,466152218,41.671204,-86.207827,Housing Authority of South Bend,,,,,,,
LOW-RENT-PUBLIC-HOUSING,510 S 28th St,South Bend,St Joseph,IN,466152218,41.671204,-86.207827,Housing Authority of South Bend,,,,,,,
LOW-RENT-PUBLIC-HOUSING,510 S 28th St,South Bend,St Joseph,IN,466152218,41.671204,-86.207827,Housing Authority of South Bend,,,,,,,
SCATTERED SITE,1980 Thornhill Dr,South Bend,St Joseph,IN,466143570,41.623943,-86.217515,Housing Authority of South Bend,,,,,,,
SCATTERED SITE,1980 Thornhill Dr,South Bend,St Joseph,IN,466143570,41.623943,-86.217515,Housing Authority of South Bend,,,,,,,
SCATTERED SITE,1980 Thornhill Dr,South Bend,St Joseph,IN,466143570,41.623943,-86.217515,Housing Authority of South Bend,,,,,,,
SCATTERED SITE,1980 Thornhill Dr,South Bend,St Joseph,IN,466143570,41.623943,-86.217515,Housing Authority of South Bend,,,,,,,
SCATTERED SITE,1980 Thornhill Dr,South Bend,St Joseph,IN,466143570,41.623943,-86.217515,Housing Authority of South Bend,,,,,,,
SCATTERED SITE,2005 S Brookfield St,South Bend,St Joseph,IN,466131303,41.653173,-86.277521,Housing Authority of South Bend,,,,,,,
SCATTERED SITE,2005 S Brookfield St,South Bend,St Joseph,IN,466131303,41.653173,-86.277521,Housing Authority of South Bend,,,,,,,
SCATTERED SITE,2005 S Brookfield St,South Bend,St Joseph,IN,466131303,41.653173,-86.277521,Housing Authority of South Bend,,,,,,,
SCATTERED SITE,2005 S Brookfield St,South Bend,St Joseph,IN,466131303,41.653173,-86.277521,Housing Authority of South Bend,,,,,,,
SCATTERED SITE,2005 S Brookfield St,South Bend,St Joseph,IN,466131303,41.653173,-86.277521,Housing Authority of South Bend,,,,,,,
ERIE HOMES,447 SE 12th St,Evansville,Vanderburgh,IN,477131974,37.971057,-87.560065,Housing Authority of the City of Evansville,,,,,,,
ERIE HOMES,447 SE 12th St,Evansville,Vanderburgh,IN,477131974,37.971057,-87.560065,Housing Authority of the City of Evansville,,,,,,,
ERIE HOMES,447 SE 12th St,Evansville,Vanderburgh,IN,477131974,37.971057,-87.560065,Housing Authority of the City of Evansville,,,,,,,
ERIE HOMES,447 SE 12th St,Evansville,Vanderburgh,IN,477131974,37.971057,-87.560065,Housing Authority of the City of Evansville,,,,,,,
ERIE HOMES,447 SE 12th St,Evansville,Vanderburgh,IN,477131974,37.971057,-87.560065,Housing Authority of the City of Evansville,,,,,,,
ERIE HOMES,447 SE 12th St,Evansville,Vanderburgh,IN,477131974,37.971057,-87.560065,Housing Authority of the City of Evansville,,,,,,,
JOHN M. CALDWELL HOMES,730 Cross St,Evansville,Vanderburgh,IN,477132015,37.951057,-87.555396,Housing Authority of the City of Evansville,,,,,,,
JOHN M. CALDWELL HOMES,730 Cross St,Evansville,Vanderburgh,IN,477132015,37.951057,-87.555396,Housing Authority of the City of Evansville,,,,,,,
JOHN M. CALDWELL HOMES,730 Cross St,Evansville,Vanderburgh,IN,477132015,37.951057,-87.555396,Housing Authority of the City of Evansville,,,,,,,
JOHN M. CALDWELL HOMES,730 Cross St,Evansville,Vanderburgh,IN,477132015,37.951057,-87.555396,Housing Authority of the City of Evansville,,,,,,,
JOHN M. CALDWELL HOMES,730 Cross St,Evansville,Vanderburgh,IN,477132015,37.951057,-87.555396,Housing Authority of the City of Evansville,,,,,,,
JOHN M. CALDWELL HOMES,730 Cross St,Evansville,Vanderburgh,IN,477132015,37.951057,-87.555396,Housing Authority of the City of Evansville,,,,,,,
JOHN M. CALDWELL HOMES,730 Cross St,Evansville,Vanderburgh,IN,477132015,37.951057,-87.555396,Housing Authority of the City of Evansville,,,,,,,
FULTON SQUARE,1718 N 5th Ave,Evansville,Vanderburgh,IN,477102667,37.994219,-87.582046,Housing Authority of the City of Evansville,,,,,,,
FULTON SQUARE,1718 N 5th Ave,Evansville,Vanderburgh,IN,477102667,37.994219,-87.582046,Housing Authority of the City of Evansville,,,,,,,
FULTON SQUARE,1718 N 5th Ave,Evansville,Vanderburgh,IN,477102667,37.994219,-87.582046,Housing Authority of the City of Evansville,,,,,,,
FULTON SQUARE,1718 N 5th Ave,Evansville,Vanderburgh,IN,477102667,37.994219,-87.582046,Housing Authority of the City of Evansville,,,,,,,
FULTON SQUARE,1718 N 5th Ave,Evansville,Vanderburgh,IN,477102667,37.994219,-87.582046,Housing Authority of the City of Evansville,,,,,,,
FULTON SQUARE,1718 N 5th Ave,Evansville,Vanderburgh,IN,477102667,37.994219,-87.582046,Housing Authority of the City of Evansville,,,,,,,
FULTON SQUARE,1718 N 5th Ave,Evansville,Vanderburgh,IN,477102667,37.994219,-87.582046,Housing Authority of the City of Evansville,,,,,,,
FULTON TERRACE GARDENS,1210 Uhlhorn St,Evansville,Vanderburgh,IN,477102768,37.995066,-87.580985,Housing Authority of the City of Evansville,,,,,,,
FULTON TERRACE GARDENS,1210 Uhlhorn St,Evansville,Vanderburgh,IN,477102768,37.995066,-87.580985,Housing Authority of the City of Evansville,,,,,,,
FULTON TERRACE GARDENS,1210 Uhlhorn St,Evansville,Vanderburgh,IN,477102768,37.995066,-87.580985,Housing Authority of the City of Evansville,,,,,,,
FULTON TERRACE GARDENS,1210 Uhlhorn St,Evansville,Vanderburgh,IN,477102768,37.995066,-87.580985,Housing Authority of the City of Evansville,,,,,,,
FULTON TERRACE GARDENS,1210 Uhlhorn St,Evansville,Vanderburgh,IN,477102768,37.995066,-87.580985,Housing Authority of the City of Evansville,,,,,,,
FULTON TERRACE GARDENS,1210 Uhlhorn St,Evansville,Vanderburgh,IN,477102768,37.995066,-87.580985,Housing Authority of the City of Evansville,,,,,,,
FULTON TERRACE GARDENS,1210 Uhlhorn St,Evansville,Vanderburgh,IN,477102768,37.995066,-87.580985,Housing Authority of the City of Evansville,,,,,,,
CALDWELL TERRACE GARDENS,1821 S Linwood Ave,Evansville,Vanderburgh,IN,477132044,37.95167,-87.555071,Housing Authority of the City of Evansville,,,,,,,
CALDWELL TERRACE GARDENS,1821 S Linwood Ave,Evansville,Vanderburgh,IN,477132044,37.95167,-87.555071,Housing Authority of the City of Evansville,,,,,,,
CALDWELL TERRACE GARDENS,1821 S Linwood Ave,Evansville,Vanderburgh,IN,477132044,37.95167,-87.555071,Housing Authority of the City of Evansville,,,,,,,
CALDWELL TERRACE GARDENS,1821 S Linwood Ave,Evansville,Vanderburgh,IN,477132044,37.95167,-87.555071,Housing Authority of the City of Evansville,,,,,,,
CALDWELL TERRACE GARDENS,1821 S Linwood Ave,Evansville,Vanderburgh,IN,477132044,37.95167,-87.555071,Housing Authority of the City of Evansville,,,,,,,
CALDWELL TERRACE GARDENS,1821 S Linwood Ave,Evansville,Vanderburgh,IN,477132044,37.95167,-87.555071,Housing Authority of the City of Evansville,,,,,,,
CALDWELL TERRACE GARDENS,1821 S Linwood Ave,Evansville,Vanderburgh,IN,477132044,37.95167,-87.555071,Housing Authority of the City of Evansville,,,,,,,
JOHN F KENNEDY TWRS,315 SE Martin Luther King Jr Blvd,Evansville,Vanderburgh,IN,477131860,37.970477,-87.565931,Housing Authority of the City of Evansville,,,,,,,
JOHN F KENNEDY TWRS,315 SE Martin Luther King Jr Blvd,Evansville,Vanderburgh,IN,477131860,37.970477,-87.565931,Housing Authority of the City of Evansville,,,,,,,
JOHN F KENNEDY TWRS,315 SE Martin Luther King Jr Blvd,Evansville,Vanderburgh,IN,477131860,37.970477,-87.565931,Housing Authority of the City of Evansville,,,,,,,
JOHN F KENNEDY TWRS,315 SE Martin Luther King Jr Blvd,Evansville,Vanderburgh,IN,477131860,37.970477,-87.565931,Housing Authority of the City of Evansville,,,,,,,
JOHN F KENNEDY TWRS,315 SE Martin Luther King Jr Blvd,Evansville,Vanderburgh,IN,477131860,37.970477,-87.565931,Housing Authority of the City of Evansville,,,,,,,
JOHN F KENNEDY TWRS,315 SE Martin Luther King Jr Blvd,Evansville,Vanderburgh,IN,477131860,37.970477,-87.565931,Housing Authority of the City of Evansville,,,,,,,
JOHN F KENNEDY TWRS,315 SE Martin Luther King Jr Blvd,Evansville,Vanderburgh,IN,477131860,37.970477,-87.565931,Housing Authority of the City of Evansville,,,,,,,
GEORGE W BUCKNER TWRS,717 Cherry St,Evansville,Vanderburgh,IN,477131861,37.969813,-87.564892,Housing Authority of the City of Evansville,,,,,,,
GEORGE W BUCKNER TWRS,717 Cherry St,Evansville,Vanderburgh,IN,477131861,37.969813,-87.564892,Housing Authority of the City of Evansville,,,,,,,
GEORGE W BUCKNER TWRS,717 Cherry St,Evansville,Vanderburgh,IN,477131861,37.969813,-87.564892,Housing Authority of the City of Evansville,,,,,,,
GEORGE W BUCKNER TWRS,717 Cherry St,Evansville,Vanderburgh,IN,477131861,37.969813,-87.564892,Housing Authority of the City of Evansville,,,,,,,
GEORGE W BUCKNER TWRS,717 Cherry St,Evansville,Vanderburgh,IN,477131861,37.969813,-87.564892,Housing Authority of the City of Evansville,,,,,,,
GEORGE W BUCKNER TWRS,717 Cherry St,Evansville,Vanderburgh,IN,477131861,37.969813,-87.564892,Housing Authority of the City of Evansville,,,,,,,
GEORGE W BUCKNER TWRS,717 Cherry St,Evansville,Vanderburgh,IN,477131861,37.969813,-87.564892,Housing Authority of the City of Evansville,,,,,,,
SCHNUTE APTS,1030 W Franklin St,Evansville,Vanderburgh,IN,477101171,37.980127,-87.578364,Housing Authority of the City of Evansville,,,,,,,
SCHNUTE APTS,1030 W Franklin St,Evansville,Vanderburgh,IN,477101171,37.980127,-87.578364,Housing Authority of the City of Evansville,,,,,,,
SCHNUTE APTS,1030 W Franklin St,Evansville,Vanderburgh,IN,477101171,37.980127,-87.578364,Housing Authority of the City of Evansville,,,,,,,
SCHNUTE APTS,1030 W Franklin St,Evansville,Vanderburgh,IN,477101171,37.980127,-87.578364,Housing Authority of the City of Evansville,,,,,,,
SCHNUTE APTS,1030 W Franklin St,Evansville,Vanderburgh,IN,477101171,37.980127,-87.578364,Housing Authority of the City of Evansville,,,,,,,
SCHNUTE APTS,1030 W Franklin St,Evansville,Vanderburgh,IN,477101171,37.980127,-87.578364,Housing Authority of the City of Evansville,,,,,,,
SCHNUTE APTS,1030 W Franklin St,Evansville,Vanderburgh,IN,477101171,37.980127,-87.578364,Housing Authority of the City of Evansville,,,,,,,
WHITE OAK APTS,509 N ST.JOSEPH AVENUE,EVANSVILLE,Vanderburgh,IN,47712,37.8976,-87.6467,Housing Authority of the City of Evansville,,,,,,,
WHITE OAK APTS,509 N ST.JOSEPH AVENUE,EVANSVILLE,Vanderburgh,IN,47712,37.8976,-87.6467,Housing Authority of the City of Evansville,,,,,,,
WHITE OAK APTS,509 N ST.JOSEPH AVENUE,EVANSVILLE,Vanderburgh,IN,47712,37.8976,-87.6467,Housing Authority of the City of Evansville,,,,,,,
WHITE OAK APTS,509 N ST.JOSEPH AVENUE,EVANSVILLE,Vanderburgh,IN,47712,37.8976,-87.6467,Housing Authority of the City of Evansville,,,,,,,
WHITE OAK APTS,509 N ST.JOSEPH AVENUE,EVANSVILLE,Vanderburgh,IN,47712,37.8976,-87.6467,Housing Authority of the City of Evansville,,,,,,,
WHITE OAK APTS,509 N ST.JOSEPH AVENUE,EVANSVILLE,Vanderburgh,IN,47712,37.8976,-87.6467,Housing Authority of the City of Evansville,,,,,,,
WHITE OAK APTS,509 N ST.JOSEPH AVENUE,EVANSVILLE,Vanderburgh,IN,47712,37.8976,-87.6467,Housing Authority of the City of Evansville,,,,,,,
BELLEMEADE-LINE APTS,"300 BELLEMEADE AND LINE, APT 306",EVANSVILLE,Vanderburgh,IN,47713,37.9605,-87.5613,Housing Authority of the City of Evansville,,,,,,,
BELLEMEADE-LINE APTS,"300 BELLEMEADE AND LINE, APT 306",EVANSVILLE,Vanderburgh,IN,47713,37.9605,-87.5613,Housing Authority of the City of Evansville,,,,,,,
BELLEMEADE-LINE APTS,"300 BELLEMEADE AND LINE, APT 306",EVANSVILLE,Vanderburgh,IN,47713,37.9605,-87.5613,Housing Authority of the City of Evansville,,,,,,,
BELLEMEADE-LINE APTS,"300 BELLEMEADE AND LINE, APT 306",EVANSVILLE,Vanderburgh,IN,47713,37.9605,-87.5613,Housing Authority of the City of Evansville,,,,,,,
BELLEMEADE-LINE APTS,"300 BELLEMEADE AND LINE, APT 306",EVANSVILLE,Vanderburgh,IN,47713,37.9605,-87.5613,Housing Authority of the City of Evansville,,,,,,,
BELLEMEADE-LINE APTS,"300 BELLEMEADE AND LINE, APT 306",EVANSVILLE,Vanderburgh,IN,47713,37.9605,-87.5613,Housing Authority of the City of Evansville,,,,,,,
BELLEMEADE-LINE APTS,"300 BELLEMEADE AND LINE, APT 306",EVANSVILLE,Vanderburgh,IN,47713,37.9605,-87.5613,Housing Authority of the City of Evansville,,,,,,,
SCATTERED SITES,200 Sweetser Ave,Evansville,Vanderburgh,IN,477131420,37.952229,-87.562322,Housing Authority of the City of Evansville,,,,,,,
SCATTERED SITES,200 Sweetser Ave,Evansville,Vanderburgh,IN,477131420,37.952229,-87.562322,Housing Authority of the City of Evansville,,,,,,,
SCATTERED SITES,200 Sweetser Ave,Evansville,Vanderburgh,IN,477131420,37.952229,-87.562322,Housing Authority of the City of Evansville,,,,,,,
SCATTERED SITES,200 Sweetser Ave,Evansville,Vanderburgh,IN,477131420,37.952229,-87.562322,Housing Authority of the City of Evansville,,,,,,,
SCATTERED SITES,200 Sweetser Ave,Evansville,Vanderburgh,IN,477131420,37.952229,-87.562322,Housing Authority of the City of Evansville,,,,,,,
SCATTERED SITES,200 Sweetser Ave,Evansville,Vanderburgh,IN,477131420,37.952229,-87.562322,Housing Authority of the City of Evansville,,,,,,,
SCATTERED SITES,200 Sweetser Ave,Evansville,Vanderburgh,IN,477131420,37.952229,-87.562322,Housing Authority of the City of Evansville,,,,,,,
SCATTERED SITES,1312 S Boeke Rd,Evansville,Vanderburgh,IN,477143120,37.95892,-87.520214,Housing Authority of the City of Evansville,,,,,,,
SCATTERED SITES,1312 S Boeke Rd,Evansville,Vanderburgh,IN,477143120,37.95892,-87.520214,Housing Authority of the City of Evansville,,,,,,,
SCATTERED SITES,1312 S Boeke Rd,Evansville,Vanderburgh,IN,477143120,37.95892,-87.520214,Housing Authority of the City of Evansville,,,,,,,
SCATTERED SITES,1312 S Boeke Rd,Evansville,Vanderburgh,IN,477143120,37.95892,-87.520214,Housing Authority of the City of Evansville,,,,,,,
SCATTERED SITES,1312 S Boeke Rd,Evansville,Vanderburgh,IN,477143120,37.95892,-87.520214,Housing Authority of the City of Evansville,,,,,,,
SCATTERED SITES,1312 S Boeke Rd,Evansville,Vanderburgh,IN,477143120,37.95892,-87.520214,Housing Authority of the City of Evansville,,,,,,,
SCATTERED SITES,1312 S Boeke Rd,Evansville,Vanderburgh,IN,477143120,37.95892,-87.520214,Housing Authority of the City of Evansville,,,,,,,
EVANSVILLE PHA,1401 Jeanette Ave,Evansville,Vanderburgh,IN,477145314,37.95805,-87.503146,Housing Authority of the City of Evansville,,,,,,,
EVANSVILLE PHA,1401 Jeanette Ave,Evansville,Vanderburgh,IN,477145314,37.95805,-87.503146,Housing Authority of the City of Evansville,,,,,,,
EVANSVILLE PHA,1401 Jeanette Ave,Evansville,Vanderburgh,IN,477145314,37.95805,-87.503146,Housing Authority of the City of Evansville,,,,,,,
EVANSVILLE PHA,1401 Jeanette Ave,Evansville,Vanderburgh,IN,477145314,37.95805,-87.503146,Housing Authority of the City of Evansville,,,,,,,
EVANSVILLE PHA,1401 Jeanette Ave,Evansville,Vanderburgh,IN,477145314,37.95805,-87.503146,Housing Authority of the City of Evansville,,,,,,,
EVANSVILLE PHA,1401 Jeanette Ave,Evansville,Vanderburgh,IN,477145314,37.95805,-87.503146,Housing Authority of the City of Evansville,,,,,,,
EVANSVILLE PHA,1401 Jeanette Ave,Evansville,Vanderburgh,IN,477145314,37.95805,-87.503146,Housing Authority of the City of Evansville,,,,,,,
SCATTERED SITES,1534 Continental Dr,Evansville,Vanderburgh,IN,477156052,37.957629,-87.481546,Housing Authority of the City of Evansville,,,,,,,
SCATTERED SITES,1534 Continental Dr,Evansville,Vanderburgh,IN,477156052,37.957629,-87.481546,Housing Authority of the City of Evansville,,,,,,,
SCATTERED SITES,1534 Continental Dr,Evansville,Vanderburgh,IN,477156052,37.957629,-87.481546,Housing Authority of the City of Evansville,,,,,,,
SCATTERED SITES,1534 Continental Dr,Evansville,Vanderburgh,IN,477156052,37.957629,-87.481546,Housing Authority of the City of Evansville,,,,,,,
SCATTERED SITES,1534 Continental Dr,Evansville,Vanderburgh,IN,477156052,37.957629,-87.481546,Housing Authority of the City of Evansville,,,,,,,
SCATTERED SITES,1534 Continental Dr,Evansville,Vanderburgh,IN,477156052,37.957629,-87.481546,Housing Authority of the City of Evansville,,,,,,,
SCATTERED SITES,1534 Continental Dr,Evansville,Vanderburgh,IN,477156052,37.957629,-87.481546,Housing Authority of the City of Evansville,,,,,,,
SCATTERED SITE,819 E Blackford Ave,Evansville,Vanderburgh,IN,477132250,37.963608,-87.551442,Housing Authority of the City of Evansville,,,,,,,
SCATTERED SITE,819 E Blackford Ave,Evansville,Vanderburgh,IN,477132250,37.963608,-87.551442,Housing Authority of the City of Evansville,,,,,,,
SCATTERED SITE,819 E Blackford Ave,Evansville,Vanderburgh,IN,477132250,37.963608,-87.551442,Housing Authority of the City of Evansville,,,,,,,
SCATTERED SITE,819 E Blackford Ave,Evansville,Vanderburgh,IN,477132250,37.963608,-87.551442,Housing Authority of the City of Evansville,,,,,,,
SCATTERED SITE,819 E Blackford Ave,Evansville,Vanderburgh,IN,477132250,37.963608,-87.551442,Housing Authority of the City of Evansville,,,,,,,
John Cable Apts,1111 Cherry St,Evansville,Vanderburgh,IN,477132036,37.972222,-87.560031,Housing Authority of the City of Evansville,,,,,,,
John Cable Apts,1111 Cherry St,Evansville,Vanderburgh,IN,477132036,37.972222,-87.560031,Housing Authority of the City of Evansville,,,,,,,
JOHN J BARTON APTS,555 Massachusetts Ave,Indianapolis,Marion,IN,462041525,39.774521,-86.149422,Indianapolis Housing Agency,,,,,,,
JOHN J BARTON APTS,555 Massachusetts Ave,Indianapolis,Marion,IN,462041525,39.774521,-86.149422,Indianapolis Housing Agency,,,,,,,
JOHN J BARTON APTS,555 Massachusetts Ave,Indianapolis,Marion,IN,462041525,39.774521,-86.149422,Indianapolis Housing Agency,,,,,,,
JOHN J BARTON APTS,555 Massachusetts Ave,Indianapolis,Marion,IN,462041525,39.774521,-86.149422,Indianapolis Housing Agency,,,,,,,
JOHN J BARTON APTS,555 Massachusetts Ave,Indianapolis,Marion,IN,462041525,39.774521,-86.149422,Indianapolis Housing Agency,,,,,,,
TWIN HILLS APTS,3524 Baltimore Ave,Indianapolis,Marion,IN,462181116,39.822808,-86.124768,Indianapolis Housing Agency,,,,,,,
TWIN HILLS APTS,3524 Baltimore Ave,Indianapolis,Marion,IN,462181116,39.822808,-86.124768,Indianapolis Housing Agency,,,,,,,
TWIN HILLS APTS,3524 Baltimore Ave,Indianapolis,Marion,IN,462181116,39.822808,-86.124768,Indianapolis Housing Agency,,,,,,,
TWIN HILLS APTS,3524 Baltimore Ave,Indianapolis,Marion,IN,462181116,39.822808,-86.124768,Indianapolis Housing Agency,,,,,,,
TWIN HILLS APTS,3524 Baltimore Ave,Indianapolis,Marion,IN,462181116,39.822808,-86.124768,Indianapolis Housing Agency,,,,,,,
BLACKBURN TERRACE,3137 Baltimore Ave Apt D,Indianapolis,Marion,IN,462185231,39.812917,-86.125425,Indianapolis Housing Agency,,,,,,,
BLACKBURN TERRACE,3137 Baltimore Ave Apt D,Indianapolis,Marion,IN,462185231,39.812917,-86.125425,Indianapolis Housing Agency,,,,,,,
BLACKBURN TERRACE,3137 Baltimore Ave Apt D,Indianapolis,Marion,IN,462185231,39.812917,-86.125425,Indianapolis Housing Agency,,,,,,,
BLACKBURN TERRACE,3137 Baltimore Ave Apt D,Indianapolis,Marion,IN,462185231,39.812917,-86.125425,Indianapolis Housing Agency,,,,,,,
HAWTHORNE PL,5252 E 32nd St,Indianapolis,Marion,IN,462182446,39.814648,-86.079793,Indianapolis Housing Agency,,,,,,,
HAWTHORNE PL,5252 E 32nd St,Indianapolis,Marion,IN,462182446,39.814648,-86.079793,Indianapolis Housing Agency,,,,,,,
HAWTHORNE PL,5252 E 32nd St,Indianapolis,Marion,IN,462182446,39.814648,-86.079793,Indianapolis Housing Agency,,,,,,,
HAWTHORNE PL,5252 E 32nd St,Indianapolis,Marion,IN,462182446,39.814648,-86.079793,Indianapolis Housing Agency,,,,,,,
HAWTHORNE PL,5252 E 32nd St,Indianapolis,Marion,IN,462182446,39.814648,-86.079793,Indianapolis Housing Agency,,,,,,,
BEECHWOOD GRDNS,2971 N Graham Ave,Indianapolis,Marion,IN,462183334,39.808805,-86.069781,Indianapolis Housing Agency,,,,,,,
BEECHWOOD GRDNS,2971 N Graham Ave,Indianapolis,Marion,IN,462183334,39.808805,-86.069781,Indianapolis Housing Agency,,,,,,,
BEECHWOOD GRDNS,2971 N Graham Ave,Indianapolis,Marion,IN,462183334,39.808805,-86.069781,Indianapolis Housing Agency,,,,,,,
BEECHWOOD GRDNS,2971 N Graham Ave,Indianapolis,Marion,IN,462183334,39.808805,-86.069781,Indianapolis Housing Agency,,,,,,,
BEECHWOOD GRDNS,2971 N Graham Ave,Indianapolis,Marion,IN,462183334,39.808805,-86.069781,Indianapolis Housing Agency,,,,,,,
BEECHWOOD GRDNS,2971 N Graham Ave,Indianapolis,Marion,IN,462183334,39.808805,-86.069781,Indianapolis Housing Agency,,,,,,,
LAURELWOOD APTS,3339 Teakwood Dr,Indianapolis,Marion,IN,462273239,39.718232,-86.13447,Indianapolis Housing Agency,,,,,,,
LAURELWOOD APTS,3339 Teakwood Dr,Indianapolis,Marion,IN,462273239,39.718232,-86.13447,Indianapolis Housing Agency,,,,,,,
LAURELWOOD APTS,3339 Teakwood Dr,Indianapolis,Marion,IN,462273239,39.718232,-86.13447,Indianapolis Housing Agency,,,,,,,
LAURELWOOD APTS,3339 Teakwood Dr,Indianapolis,Marion,IN,462273239,39.718232,-86.13447,Indianapolis Housing Agency,,,,,,,
LAURELWOOD APTS,3339 Teakwood Dr,Indianapolis,Marion,IN,462273239,39.718232,-86.13447,Indianapolis Housing Agency,,,,,,,
LAURELWOOD APTS,3339 Teakwood Dr,Indianapolis,Marion,IN,462273239,39.718232,-86.13447,Indianapolis Housing Agency,,,,,,,
JOHN J BARTON ANNEX,501 N East St,Indianapolis,Marion,IN,462041632,39.773893,-86.148536,Indianapolis Housing Agency,,,,,,,
JOHN J BARTON ANNEX,501 N East St,Indianapolis,Marion,IN,462041632,39.773893,-86.148536,Indianapolis Housing Agency,,,,,,,
JOHN J BARTON ANNEX,501 N East St,Indianapolis,Marion,IN,462041632,39.773893,-86.148536,Indianapolis Housing Agency,,,,,,,
JOHN J BARTON ANNEX,501 N East St,Indianapolis,Marion,IN,462041632,39.773893,-86.148536,Indianapolis Housing Agency,,,,,,,
JOHN J BARTON ANNEX,501 N East St,Indianapolis,Marion,IN,462041632,39.773893,-86.148536,Indianapolis Housing Agency,,,,,,,
JOHN J BARTON ANNEX,501 N East St,Indianapolis,Marion,IN,462041632,39.773893,-86.148536,Indianapolis Housing Agency,,,,,,,
ROWNEY TERR,1449 S Bancroft St,Indianapolis,Marion,IN,462033789,39.748668,-86.083945,Indianapolis Housing Agency,,,,,,,
ROWNEY TERR,1449 S Bancroft St,Indianapolis,Marion,IN,462033789,39.748668,-86.083945,Indianapolis Housing Agency,,,,,,,
ROWNEY TERR,1449 S Bancroft St,Indianapolis,Marion,IN,462033789,39.748668,-86.083945,Indianapolis Housing Agency,,,,,,,
ROWNEY TERR,1449 S Bancroft St,Indianapolis,Marion,IN,462033789,39.748668,-86.083945,Indianapolis Housing Agency,,,,,,,
ROWNEY TERR,1449 S Bancroft St,Indianapolis,Marion,IN,462033789,39.748668,-86.083945,Indianapolis Housing Agency,,,,,,,
ROWNEY TERR,1449 S Bancroft St,Indianapolis,Marion,IN,462033789,39.748668,-86.083945,Indianapolis Housing Agency,,,,,,,
LUGAR TOWERS,901 Fort Wayne Ave,Indianapolis,Marion,IN,462023362,39.77892,-86.151259,Indianapolis Housing Agency,,,,,,,
LUGAR TOWERS,901 Fort Wayne Ave,Indianapolis,Marion,IN,462023362,39.77892,-86.151259,Indianapolis Housing Agency,,,,,,,
LUGAR TOWERS,901 Fort Wayne Ave,Indianapolis,Marion,IN,462023362,39.77892,-86.151259,Indianapolis Housing Agency,,,,,,,
LUGAR TOWERS,901 Fort Wayne Ave,Indianapolis,Marion,IN,462023362,39.77892,-86.151259,Indianapolis Housing Agency,,,,,,,
LUGAR TOWERS,901 Fort Wayne Ave,Indianapolis,Marion,IN,462023362,39.77892,-86.151259,Indianapolis Housing Agency,,,,,,,
LUGAR TOWERS,901 Fort Wayne Ave,Indianapolis,Marion,IN,462023362,39.77892,-86.151259,Indianapolis Housing Agency,,,,,,,
INDIANA AVENUE APTS,825 Indiana Ave,Indianapolis,Marion,IN,462022918,39.778667,-86.17142,Indianapolis Housing Agency,,,,,,,
INDIANA AVENUE APTS,825 Indiana Ave,Indianapolis,Marion,IN,462022918,39.778667,-86.17142,Indianapolis Housing Agency,,,,,,,
INDIANA AVENUE APTS,825 Indiana Ave,Indianapolis,Marion,IN,462022918,39.778667,-86.17142,Indianapolis Housing Agency,,,,,,,
INDIANA AVENUE APTS,825 Indiana Ave,Indianapolis,Marion,IN,462022918,39.778667,-86.17142,Indianapolis Housing Agency,,,,,,,
INDIANA AVENUE APTS,825 Indiana Ave,Indianapolis,Marion,IN,462022918,39.778667,-86.17142,Indianapolis Housing Agency,,,,,,,
INDIANA AVENUE APTS,825 Indiana Ave,Indianapolis,Marion,IN,462022918,39.778667,-86.17142,Indianapolis Housing Agency,,,,,,,
CONCORD HOMES WEST,784 N Centennial St,Indianapolis,Marion,IN,462223507,39.77846,-86.213336,Indianapolis Housing Agency,,,,,,,
CONCORD HOMES WEST,784 N Centennial St,Indianapolis,Marion,IN,462223507,39.77846,-86.213336,Indianapolis Housing Agency,,,,,,,
CONCORD HOMES WEST,784 N Centennial St,Indianapolis,Marion,IN,462223507,39.77846,-86.213336,Indianapolis Housing Agency,,,,,,,
Tibbs Court,518 N Traub Ave,Indianapolis,Marion,IN,462223833,39.774936,-86.196051,Indianapolis Housing Agency,,,,,,,
Tibbs Court,518 N Traub Ave,Indianapolis,Marion,IN,462223833,39.774936,-86.196051,Indianapolis Housing Agency,,,,,,,
EAGLE CREEK HOMES WEST,321 N Exeter Ave,Indianapolis,Marion,IN,462224910,39.770534,-86.219868,Indianapolis Housing Agency,,,,,,,
EAGLE CREEK HOMES WEST,321 N Exeter Ave,Indianapolis,Marion,IN,462224910,39.770534,-86.219868,Indianapolis Housing Agency,,,,,,,
EAGLE CREEK HOMES WEST,321 N Exeter Ave,Indianapolis,Marion,IN,462224910,39.770534,-86.219868,Indianapolis Housing Agency,,,,,,,
EAGLE CREEK HOMES EAST,309 N Berwick Ave,Indianapolis,Marion,IN,462224991,39.77067,-86.218313,Indianapolis Housing Agency,,,,,,,
EAGLE CREEK HOMES EAST,309 N Berwick Ave,Indianapolis,Marion,IN,462224991,39.77067,-86.218313,Indianapolis Housing Agency,,,,,,,
EAGLE CREEK HOMES EAST,309 N Berwick Ave,Indianapolis,Marion,IN,462224991,39.77067,-86.218313,Indianapolis Housing Agency,,,,,,,
CONCORD HOMES EAST,2709 W Walnut St,Indianapolis,Marion,IN,462223657,39.776472,-86.206395,Indianapolis Housing Agency,,,,,,,
CONCORD HOMES EAST,2709 W Walnut St,Indianapolis,Marion,IN,462223657,39.776472,-86.206395,Indianapolis Housing Agency,,,,,,,
CONCORD HOMES EAST,2709 W Walnut St,Indianapolis,Marion,IN,462223657,39.776472,-86.206395,Indianapolis Housing Agency,,,,,,,
ERIE HOMES,618 16th St,Tell City,Perry,IN,475861129,37.949535,-86.759085,Housing Authority of the City of Tell City,,,,,,,
ERIE HOMES,618 16th St,Tell City,Perry,IN,475861129,37.949535,-86.759085,Housing Authority of the City of Tell City,,,,,,,
ERIE HOMES,618 16th St,Tell City,Perry,IN,475861129,37.949535,-86.759085,Housing Authority of the City of Tell City,,,,,,,
ERIE HOMES,618 16th St,Tell City,Perry,IN,475861129,37.949535,-86.759085,Housing Authority of the City of Tell City,,,,,,,
TWILIGHT TOWERS,1648 10th St,Tell City,Perry,IN,475861342,37.965106,-86.766888,Housing Authority of the City of Tell City,,,,,,,
TWILIGHT TOWERS,1648 10th St,Tell City,Perry,IN,475861342,37.965106,-86.766888,Housing Authority of the City of Tell City,,,,,,,
TWILIGHT TOWERS,1648 10th St,Tell City,Perry,IN,475861342,37.965106,-86.766888,Housing Authority of the City of Tell City,,,,,,,
TWILIGHT TOWERS,1648 10th St,Tell City,Perry,IN,475861342,37.965106,-86.766888,Housing Authority of the City of Tell City,,,,,,,
TWILIGHT TOWERS NORTH,1648 10th St,Tell City,Perry,IN,475861342,37.965106,-86.766888,Housing Authority of the City of Tell City,,,,,,,
TWILIGHT TOWERS NORTH,1648 10th St,Tell City,Perry,IN,475861342,37.965106,-86.766888,Housing Authority of the City of Tell City,,,,,,,
TWILIGHT TOWERS NORTH,1648 10th St,Tell City,Perry,IN,475861342,37.965106,-86.766888,Housing Authority of the City of Tell City,,,,,,,
TWILIGHT TOWERS NORTH,1648 10th St,Tell City,Perry,IN,475861342,37.965106,-86.766888,Housing Authority of the City of Tell City,,,,,,,
SPRING HILL TERRACE,1815 Pestalozzi St,Tell City,Perry,IN,475861172,37.946061,-86.756434,Housing Authority of the City of Tell City,,,,,,,
SPRING HILL TERRACE,1815 Pestalozzi St,Tell City,Perry,IN,475861172,37.946061,-86.756434,Housing Authority of the City of Tell City,,,,,,,
SPRING HILL TERRACE,1815 Pestalozzi St,Tell City,Perry,IN,475861172,37.946061,-86.756434,Housing Authority of the City of Tell City,,,,,,,
SPRING HILL TERRACE,1815 Pestalozzi St,Tell City,Perry,IN,475861172,37.946061,-86.756434,Housing Authority of the City of Tell City,,,,,,,
HARBORSIDE HMS,1313 W 8th St,Michigan City,La Porte,IN,463603820,41.709107,-86.916043,Housing Authority of the City of Michigan City,,,,,,,
HARBORSIDE HMS,1313 W 8th St,Michigan City,La Porte,IN,463603820,41.709107,-86.916043,Housing Authority of the City of Michigan City,,,,,,,
HARBORSIDE HMS,1313 W 8th St,Michigan City,La Porte,IN,463603820,41.709107,-86.916043,Housing Authority of the City of Michigan City,,,,,,,
BOULEVARD GARDENS,421 E 6th St,Michigan City,La Porte,IN,463601483,41.717238,-86.896654,Housing Authority of the City of Michigan City,,,,,,,
BOULEVARD GARDENS,421 E 6th St,Michigan City,La Porte,IN,463601483,41.717238,-86.896654,Housing Authority of the City of Michigan City,,,,,,,
BOULEVARD GARDENS,421 E 6th St,Michigan City,La Porte,IN,463601483,41.717238,-86.896654,Housing Authority of the City of Michigan City,,,,,,,
BOULEVARD GARDENS,421 E 6th St,Michigan City,La Porte,IN,463601483,41.717238,-86.896654,Housing Authority of the City of Michigan City,,,,,,,
LAKELAND ESTATES,216 Merrihill Dr,Michigan City,La Porte,IN,463602735,41.718842,-86.853976,Housing Authority of the City of Michigan City,,,,,,,
LAKELAND ESTATES,216 Merrihill Dr,Michigan City,La Porte,IN,463602735,41.718842,-86.853976,Housing Authority of the City of Michigan City,,,,,,,
LAKELAND ESTATES,216 Merrihill Dr,Michigan City,La Porte,IN,463602735,41.718842,-86.853976,Housing Authority of the City of Michigan City,,,,,,,
LAKELAND ESTATES,216 Merrihill Dr,Michigan City,La Porte,IN,463602735,41.718842,-86.853976,Housing Authority of the City of Michigan City,,,,,,,
SCATTERED SITES,608 Lamb Ct,Michigan City,La Porte,IN,463603843,41.713639,-86.909749,Housing Authority of the City of Michigan City,,,,,,,
SCATTERED SITES,608 Lamb Ct,Michigan City,La Porte,IN,463603843,41.713639,-86.909749,Housing Authority of the City of Michigan City,,,,,,,
SCATTERED SITES,608 Lamb Ct,Michigan City,La Porte,IN,463603843,41.713639,-86.909749,Housing Authority of the City of Michigan City,,,,,,,
SCATTERED SITES,608 Lamb Ct,Michigan City,La Porte,IN,463603843,41.713639,-86.909749,Housing Authority of the City of Michigan City,,,,,,,
SCATTERED SITES,305 Brinkman Ave,Michigan City,La Porte,IN,463606916,41.692799,-86.896744,Housing Authority of the City of Michigan City,,,,,,,
SCATTERED SITES,305 Brinkman Ave,Michigan City,La Porte,IN,463606916,41.692799,-86.896744,Housing Authority of the City of Michigan City,,,,,,,
SCATTERED SITES,305 Brinkman Ave,Michigan City,La Porte,IN,463606916,41.692799,-86.896744,Housing Authority of the City of Michigan City,,,,,,,
SCATTERED SITES,305 Brinkman Ave,Michigan City,La Porte,IN,463606916,41.692799,-86.896744,Housing Authority of the City of Michigan City,,,,,,,
SCATTERED SITES,218 1/2 W 9th St,Michigan City,La Porte,IN,463603551,41.712481,-86.901437,Housing Authority of the City of Michigan City,,,,,,,
SCATTERED SITES,218 1/2 W 9th St,Michigan City,La Porte,IN,463603551,41.712481,-86.901437,Housing Authority of the City of Michigan City,,,,,,,
SCATTERED SITES,218 1/2 W 9th St,Michigan City,La Porte,IN,463603551,41.712481,-86.901437,Housing Authority of the City of Michigan City,,,,,,,
SCATTERED SITES,218 1/2 W 9th St,Michigan City,La Porte,IN,463603551,41.712481,-86.901437,Housing Authority of the City of Michigan City,,,,,,,
BARBEE CREEK VILLAGE,508 E 12th St,Mishawaka,St Joseph,IN,465445421,41.651388,-86.174569,Housing Authority of the City of Mishawaka,,,,,,,
BARBEE CREEK VILLAGE,508 E 12th St,Mishawaka,St Joseph,IN,465445421,41.651388,-86.174569,Housing Authority of the City of Mishawaka,,,,,,,
BARBEE CREEK VILLAGE,508 E 12th St,Mishawaka,St Joseph,IN,465445421,41.651388,-86.174569,Housing Authority of the City of Mishawaka,,,,,,,
BARBEE CREEK VILLAGE,508 E 12th St,Mishawaka,St Joseph,IN,465445421,41.651388,-86.174569,Housing Authority of the City of Mishawaka,,,,,,,
RIVER VIEW 500,500 Lincolnway E,Mishawaka,St Joseph,IN,465442266,41.6607,-86.1665,Housing Authority of the City of Mishawaka,,,,,,,
RIVER VIEW 500,500 Lincolnway E,Mishawaka,St Joseph,IN,465442266,41.6607,-86.1665,Housing Authority of the City of Mishawaka,,,,,,,
RIVER VIEW 500,500 Lincolnway E,Mishawaka,St Joseph,IN,465442266,41.6607,-86.1665,Housing Authority of the City of Mishawaka,,,,,,,
RIVER VIEW 500,500 Lincolnway E,Mishawaka,St Joseph,IN,465442266,41.6607,-86.1665,Housing Authority of the City of Mishawaka,,,,,,,
BATTELL SCHOOL APARTMENTS,120 E Battell St,Mishawaka,St Joseph,IN,465456659,41.668979,-86.18098,Housing Authority of the City of Mishawaka,,,,,,,
BATTELL SCHOOL APARTMENTS,120 E Battell St,Mishawaka,St Joseph,IN,465456659,41.668979,-86.18098,Housing Authority of the City of Mishawaka,,,,,,,
BATTELL SCHOOL APARTMENTS,120 E Battell St,Mishawaka,St Joseph,IN,465456659,41.668979,-86.18098,Housing Authority of the City of Mishawaka,,,,,,,
BATTELL SCHOOL APARTMENTS,120 E Battell St,Mishawaka,St Joseph,IN,465456659,41.668979,-86.18098,Housing Authority of the City of Mishawaka,,,,,,,
LOCKPORT,506 Foulkes Dr,Terre Haute,Vigo,IN,478022438,39.446082,-87.400737,Housing Authority of the City of Terre Haute,,,,,,,
LOCKPORT,506 Foulkes Dr,Terre Haute,Vigo,IN,478022438,39.446082,-87.400737,Housing Authority of the City of Terre Haute,,,,,,,
LOCKPORT,506 Foulkes Dr,Terre Haute,Vigo,IN,478022438,39.446082,-87.400737,Housing Authority of the City of Terre Haute,,,,,,,
LOCKPORT,506 Foulkes Dr,Terre Haute,Vigo,IN,478022438,39.446082,-87.400737,Housing Authority of the City of Terre Haute,,,,,,,
LOCKPORT,506 Foulkes Dr,Terre Haute,Vigo,IN,478022438,39.446082,-87.400737,Housing Authority of the City of Terre Haute,,,,,,,
MARGARET AVE - 1,2933 Ijams Dr,Terre Haute,Vigo,IN,478023741,39.434743,-87.421157,Housing Authority of the City of Terre Haute,,,,,,,
MARGARET AVE - 1,2933 Ijams Dr,Terre Haute,Vigo,IN,478023741,39.434743,-87.421157,Housing Authority of the City of Terre Haute,,,,,,,
MARGARET AVE - 1,2933 Ijams Dr,Terre Haute,Vigo,IN,478023741,39.434743,-87.421157,Housing Authority of the City of Terre Haute,,,,,,,
MARGARET AVE - 1,2933 Ijams Dr,Terre Haute,Vigo,IN,478023741,39.434743,-87.421157,Housing Authority of the City of Terre Haute,,,,,,,
MARGARET AVE - 1,2933 Ijams Dr,Terre Haute,Vigo,IN,478023741,39.434743,-87.421157,Housing Authority of the City of Terre Haute,,,,,,,
DREISER SQUARE - 1,84 Dreiser Sq,Terre Haute,Vigo,IN,478074618,39.455576,-87.415725,Housing Authority of the City of Terre Haute,,,,,,,
DREISER SQUARE - 1,84 Dreiser Sq,Terre Haute,Vigo,IN,478074618,39.455576,-87.415725,Housing Authority of the City of Terre Haute,,,,,,,
DREISER SQUARE - 1,84 Dreiser Sq,Terre Haute,Vigo,IN,478074618,39.455576,-87.415725,Housing Authority of the City of Terre Haute,,,,,,,
DREISER SQUARE - 1,84 Dreiser Sq,Terre Haute,Vigo,IN,478074618,39.455576,-87.415725,Housing Authority of the City of Terre Haute,,,,,,,
DREISER SQUARE - 1,84 Dreiser Sq,Terre Haute,Vigo,IN,478074618,39.455576,-87.415725,Housing Authority of the City of Terre Haute,,,,,,,
DREISER SQUARE - 2,1265 Dreiser Sq,Terre Haute,Vigo,IN,478024673,39.4044,-87.3918,Housing Authority of the City of Terre Haute,,,,,,,
DREISER SQUARE - 2,1265 Dreiser Sq,Terre Haute,Vigo,IN,478024673,39.4044,-87.3918,Housing Authority of the City of Terre Haute,,,,,,,
DREISER SQUARE - 2,1265 Dreiser Sq,Terre Haute,Vigo,IN,478024673,39.4044,-87.3918,Housing Authority of the City of Terre Haute,,,,,,,
DREISER SQUARE - 2,1265 Dreiser Sq,Terre Haute,Vigo,IN,478024673,39.4044,-87.3918,Housing Authority of the City of Terre Haute,,,,,,,
DREISER SQUARE - 2,1265 Dreiser Sq,Terre Haute,Vigo,IN,478024673,39.4044,-87.3918,Housing Authority of the City of Terre Haute,,,,,,,
MARGARET AVE - 2,2943 Krumbhaar St,Terre Haute,Vigo,IN,478023747,39.434846,-87.423026,Housing Authority of the City of Terre Haute,,,,,,,
MARGARET AVE - 2,2943 Krumbhaar St,Terre Haute,Vigo,IN,478023747,39.434846,-87.423026,Housing Authority of the City of Terre Haute,,,,,,,
MARGARET AVE - 2,2943 Krumbhaar St,Terre Haute,Vigo,IN,478023747,39.434846,-87.423026,Housing Authority of the City of Terre Haute,,,,,,,
MARGARET AVE - 2,2943 Krumbhaar St,Terre Haute,Vigo,IN,478023747,39.434846,-87.423026,Housing Authority of the City of Terre Haute,,,,,,,
MARGARET AVE - 2,2943 Krumbhaar St,Terre Haute,Vigo,IN,478023747,39.434846,-87.423026,Housing Authority of the City of Terre Haute,,,,,,,
GARFIELD TOWERS,2200 Garfield Ave,Terre Haute,Vigo,IN,478043036,39.493432,-87.399437,Housing Authority of the City of Terre Haute,,,,,,,
GARFIELD TOWERS,2200 Garfield Ave,Terre Haute,Vigo,IN,478043036,39.493432,-87.399437,Housing Authority of the City of Terre Haute,,,,,,,
GARFIELD TOWERS,2200 Garfield Ave,Terre Haute,Vigo,IN,478043036,39.493432,-87.399437,Housing Authority of the City of Terre Haute,,,,,,,
GARFIELD TOWERS,2200 Garfield Ave,Terre Haute,Vigo,IN,478043036,39.493432,-87.399437,Housing Authority of the City of Terre Haute,,,,,,,
GARFIELD TOWERS,2200 Garfield Ave,Terre Haute,Vigo,IN,478043036,39.493432,-87.399437,Housing Authority of the City of Terre Haute,,,,,,,
MORTON LEWIS COURT,1827 N 4th St,Terre Haute,Vigo,IN,478044069,39.487391,-87.412577,Housing Authority of the City of Terre Haute,,,,,,,
MORTON LEWIS COURT,1827 N 4th St,Terre Haute,Vigo,IN,478044069,39.487391,-87.412577,Housing Authority of the City of Terre Haute,,,,,,,
MORTON LEWIS COURT,1827 N 4th St,Terre Haute,Vigo,IN,478044069,39.487391,-87.412577,Housing Authority of the City of Terre Haute,,,,,,,
MORTON LEWIS COURT,1827 N 4th St,Terre Haute,Vigo,IN,478044069,39.487391,-87.412577,Housing Authority of the City of Terre Haute,,,,,,,
MORTON LEWIS COURT,1827 N 4th St,Terre Haute,Vigo,IN,478044069,39.487391,-87.412577,Housing Authority of the City of Terre Haute,,,,,,,
MCMILLAN SQUARE,526 1st Ave,Terre Haute,Vigo,IN,478071804,39.478682,-87.411112,Housing Authority of the City of Terre Haute,,,,,,,
MCMILLAN SQUARE,526 1st Ave,Terre Haute,Vigo,IN,478071804,39.478682,-87.411112,Housing Authority of the City of Terre Haute,,,,,,,
MCMILLAN SQUARE,526 1st Ave,Terre Haute,Vigo,IN,478071804,39.478682,-87.411112,Housing Authority of the City of Terre Haute,,,,,,,
MCMILLAN SQUARE,526 1st Ave,Terre Haute,Vigo,IN,478071804,39.478682,-87.411112,Housing Authority of the City of Terre Haute,,,,,,,
MCMILLAN SQUARE,526 1st Ave,Terre Haute,Vigo,IN,478071804,39.478682,-87.411112,Housing Authority of the City of Terre Haute,,,,,,,
TURNKEY-1982,1908 Elm St,Terre Haute,Vigo,IN,478072349,39.476716,-87.388245,Housing Authority of the City of Terre Haute,,,,,,,
TURNKEY-1982,1908 Elm St,Terre Haute,Vigo,IN,478072349,39.476716,-87.388245,Housing Authority of the City of Terre Haute,,,,,,,
TURNKEY-1982,1908 Elm St,Terre Haute,Vigo,IN,478072349,39.476716,-87.388245,Housing Authority of the City of Terre Haute,,,,,,,
TURNKEY-1982,1908 Elm St,Terre Haute,Vigo,IN,478072349,39.476716,-87.388245,Housing Authority of the City of Terre Haute,,,,,,,
TURNKEY-1982,1908 Elm St,Terre Haute,Vigo,IN,478072349,39.476716,-87.388245,Housing Authority of the City of Terre Haute,,,,,,,
ACQUISTION-1984,425 Washington Ave,Terre Haute,Vigo,IN,478021131,39.452244,-87.412204,Housing Authority of the City of Terre Haute,,,,,,,
ACQUISTION-1984,425 Washington Ave,Terre Haute,Vigo,IN,478021131,39.452244,-87.412204,Housing Authority of the City of Terre Haute,,,,,,,
ACQUISTION-1984,425 Washington Ave,Terre Haute,Vigo,IN,478021131,39.452244,-87.412204,Housing Authority of the City of Terre Haute,,,,,,,
ACQUISTION-1984,425 Washington Ave,Terre Haute,Vigo,IN,478021131,39.452244,-87.412204,Housing Authority of the City of Terre Haute,,,,,,,
ACQUISTION-1984,425 Washington Ave,Terre Haute,Vigo,IN,478021131,39.452244,-87.412204,Housing Authority of the City of Terre Haute,,,,,,,
TURNKEY-1985,2523 N 26th St,Terre Haute,Vigo,IN,478042113,39.496982,-87.377723,Housing Authority of the City of Terre Haute,,,,,,,
TURNKEY-1985,2523 N 26th St,Terre Haute,Vigo,IN,478042113,39.496982,-87.377723,Housing Authority of the City of Terre Haute,,,,,,,
TURNKEY-1985,2523 N 26th St,Terre Haute,Vigo,IN,478042113,39.496982,-87.377723,Housing Authority of the City of Terre Haute,,,,,,,
TURNKEY-1985,2523 N 26th St,Terre Haute,Vigo,IN,478042113,39.496982,-87.377723,Housing Authority of the City of Terre Haute,,,,,,,
TURNKEY-1985,2523 N 26th St,Terre Haute,Vigo,IN,478042113,39.496982,-87.377723,Housing Authority of the City of Terre Haute,,,,,,,
ACQUISITION-1987,1232 S 4th St,Terre Haute,Vigo,IN,478021018,39.454207,-87.412323,Housing Authority of the City of Terre Haute,,,,,,,
ACQUISITION-1987,1232 S 4th St,Terre Haute,Vigo,IN,478021018,39.454207,-87.412323,Housing Authority of the City of Terre Haute,,,,,,,
ACQUISITION-1987,1232 S 4th St,Terre Haute,Vigo,IN,478021018,39.454207,-87.412323,Housing Authority of the City of Terre Haute,,,,,,,
ACQUISITION-1987,1232 S 4th St,Terre Haute,Vigo,IN,478021018,39.454207,-87.412323,Housing Authority of the City of Terre Haute,,,,,,,
ACQUISITION-1987,1232 S 4th St,Terre Haute,Vigo,IN,478021018,39.454207,-87.412323,Housing Authority of the City of Terre Haute,,,,,,,
ACQUISITION-1989,2218 2nd Ave,Terre Haute,Vigo,IN,478071741,39.4795,-87.384952,Housing Authority of the City of Terre Haute,,,,,,,
ACQUISITION-1989,2218 2nd Ave,Terre Haute,Vigo,IN,478071741,39.4795,-87.384952,Housing Authority of the City of Terre Haute,,,,,,,
ACQUISITION-1989,2218 2nd Ave,Terre Haute,Vigo,IN,478071741,39.4795,-87.384952,Housing Authority of the City of Terre Haute,,,,,,,
ACQUISITION-1989,2218 2nd Ave,Terre Haute,Vigo,IN,478071741,39.4795,-87.384952,Housing Authority of the City of Terre Haute,,,,,,,
ACQUISITION-1989,2218 2nd Ave,Terre Haute,Vigo,IN,478071741,39.4795,-87.384952,Housing Authority of the City of Terre Haute,,,,,,,
ACQUISITION-1993,229 N 14th 1/2 St,Terre Haute,Vigo,IN,478072818,39.470825,-87.393792,Housing Authority of the City of Terre Haute,,,,,,,
ACQUISITION-1993,229 N 14th 1/2 St,Terre Haute,Vigo,IN,478072818,39.470825,-87.393792,Housing Authority of the City of Terre Haute,,,,,,,
ACQUISITION-1993,229 N 14th 1/2 St,Terre Haute,Vigo,IN,478072818,39.470825,-87.393792,Housing Authority of the City of Terre Haute,,,,,,,
ACQUISITION-1993,229 N 14th 1/2 St,Terre Haute,Vigo,IN,478072818,39.470825,-87.393792,Housing Authority of the City of Terre Haute,,,,,,,
ACQUISITION-1993,229 N 14th 1/2 St,Terre Haute,Vigo,IN,478072818,39.470825,-87.393792,Housing Authority of the City of Terre Haute,,,,,,,
CRESTMONT,1006 N Summitt St,Bloomington,Monroe,IN,474043173,39.175081,-86.547875,Housing Authority of the City of Bloomington,,,,,,,
CRESTMONT,1006 N Summitt St,Bloomington,Monroe,IN,474043173,39.175081,-86.547875,Housing Authority of the City of Bloomington,,,,,,,
CRESTMONT,1006 N Summitt St,Bloomington,Monroe,IN,474043173,39.175081,-86.547875,Housing Authority of the City of Bloomington,,,,,,,
CRESTMONT,1006 N Summitt St,Bloomington,Monroe,IN,474043173,39.175081,-86.547875,Housing Authority of the City of Bloomington,,,,,,,
CRESTMONT,1006 N Summitt St,Bloomington,Monroe,IN,474043173,39.175081,-86.547875,Housing Authority of the City of Bloomington,,,,,,,
REVERNED E. D. BUTLER APARTME,1318 W 11th St,Bloomington,Monroe,IN,474043216,39.173407,-86.549932,Housing Authority of the City of Bloomington,,,,,,,
REVERNED E. D. BUTLER APARTME,1318 W 11th St,Bloomington,Monroe,IN,474043216,39.173407,-86.549932,Housing Authority of the City of Bloomington,,,,,,,
REVERNED E. D. BUTLER APARTME,1318 W 11th St,Bloomington,Monroe,IN,474043216,39.173407,-86.549932,Housing Authority of the City of Bloomington,,,,,,,
REVERNED E. D. BUTLER APARTME,1318 W 11th St,Bloomington,Monroe,IN,474043216,39.173407,-86.549932,Housing Authority of the City of Bloomington,,,,,,,
REVERNED E. D. BUTLER APARTME,1318 W 11th St,Bloomington,Monroe,IN,474043216,39.173407,-86.549932,Housing Authority of the City of Bloomington,,,,,,,
WALNUT WOODS,818 E Miller Dr,Bloomington,Monroe,IN,474016777,39.146701,-86.522304,Housing Authority of the City of Bloomington,,,,,,,
WALNUT WOODS,818 E Miller Dr,Bloomington,Monroe,IN,474016777,39.146701,-86.522304,Housing Authority of the City of Bloomington,,,,,,,
WALNUT WOODS,818 E Miller Dr,Bloomington,Monroe,IN,474016777,39.146701,-86.522304,Housing Authority of the City of Bloomington,,,,,,,
WALNUT WOODS,818 E Miller Dr,Bloomington,Monroe,IN,474016777,39.146701,-86.522304,Housing Authority of the City of Bloomington,,,,,,,
WALNUT WOODS,818 E Miller Dr,Bloomington,Monroe,IN,474016777,39.146701,-86.522304,Housing Authority of the City of Bloomington,,,,,,,
NORTHTOWN TERRACE,209 National Ave,Jeffersonville,Clark,IN,471302937,38.289806,-85.751791,Housing Authority of the City of Jeffersonville,,,,,,,
NORTHTOWN TERRACE,209 National Ave,Jeffersonville,Clark,IN,471302937,38.289806,-85.751791,Housing Authority of the City of Jeffersonville,,,,,,,
NORTHTOWN TERRACE,209 National Ave,Jeffersonville,Clark,IN,471302937,38.289806,-85.751791,Housing Authority of the City of Jeffersonville,,,,,,,
NORTHTOWN TERRACE,209 National Ave,Jeffersonville,Clark,IN,471302937,38.289806,-85.751791,Housing Authority of the City of Jeffersonville,,,,,,,
NORTHTOWN TERRACE,209 National Ave,Jeffersonville,Clark,IN,471302937,38.289806,-85.751791,Housing Authority of the City of Jeffersonville,,,,,,,
NORTHTOWN TERRACE,209 National Ave,Jeffersonville,Clark,IN,471302937,38.289806,-85.751791,Housing Authority of the City of Jeffersonville,,,,,,,
GREEN TREE VILLAGE,1411 E 8th St,Jeffersonville,Clark,IN,471304462,38.285452,-85.728004,Housing Authority of the City of Jeffersonville,,,,,,,
GREEN TREE VILLAGE,1411 E 8th St,Jeffersonville,Clark,IN,471304462,38.285452,-85.728004,Housing Authority of the City of Jeffersonville,,,,,,,
GREEN TREE VILLAGE,1411 E 8th St,Jeffersonville,Clark,IN,471304462,38.285452,-85.728004,Housing Authority of the City of Jeffersonville,,,,,,,
GREEN TREE VILLAGE,1411 E 8th St,Jeffersonville,Clark,IN,471304462,38.285452,-85.728004,Housing Authority of the City of Jeffersonville,,,,,,,
GREEN TREE VILLAGE,1411 E 8th St,Jeffersonville,Clark,IN,471304462,38.285452,-85.728004,Housing Authority of the City of Jeffersonville,,,,,,,
GREEN TREE VILLAGE,1411 E 8th St,Jeffersonville,Clark,IN,471304462,38.285452,-85.728004,Housing Authority of the City of Jeffersonville,,,,,,,
GREENWOOD APTS,104 Greenwood,Jeffersonville,Clark,IN,471306443,38.289812,-85.745994,Housing Authority of the City of Jeffersonville,,,,,,,
GREENWOOD APTS,104 Greenwood,Jeffersonville,Clark,IN,471306443,38.289812,-85.745994,Housing Authority of the City of Jeffersonville,,,,,,,
GREENWOOD APTS,104 Greenwood,Jeffersonville,Clark,IN,471306443,38.289812,-85.745994,Housing Authority of the City of Jeffersonville,,,,,,,
GREENWOOD APTS,104 Greenwood,Jeffersonville,Clark,IN,471306443,38.289812,-85.745994,Housing Authority of the City of Jeffersonville,,,,,,,
GREENWOOD APTS,104 Greenwood,Jeffersonville,Clark,IN,471306443,38.289812,-85.745994,Housing Authority of the City of Jeffersonville,,,,,,,
GREENWOOD APTS,104 Greenwood,Jeffersonville,Clark,IN,471306443,38.289812,-85.745994,Housing Authority of the City of Jeffersonville,,,,,,,
FULTON TERRACE,1307 E Court Ave,Jeffersonville,Clark,IN,471304360,38.283021,-85.725375,Housing Authority of the City of Jeffersonville,,,,,,,
FULTON TERRACE,1307 E Court Ave,Jeffersonville,Clark,IN,471304360,38.283021,-85.725375,Housing Authority of the City of Jeffersonville,,,,,,,
FULTON TERRACE,1307 E Court Ave,Jeffersonville,Clark,IN,471304360,38.283021,-85.725375,Housing Authority of the City of Jeffersonville,,,,,,,
FULTON TERRACE,1307 E Court Ave,Jeffersonville,Clark,IN,471304360,38.283021,-85.725375,Housing Authority of the City of Jeffersonville,,,,,,,
FULTON TERRACE,1307 E Court Ave,Jeffersonville,Clark,IN,471304360,38.283021,-85.725375,Housing Authority of the City of Jeffersonville,,,,,,,
FULTON TERRACE,1307 E Court Ave,Jeffersonville,Clark,IN,471304360,38.283021,-85.725375,Housing Authority of the City of Jeffersonville,,,,,,,
CLARK ARMS APTS,117 W Market St,Jeffersonville,Clark,IN,471303300,38.270466,-85.739605,Housing Authority of the City of Jeffersonville,,,,,,,
CLARK ARMS APTS,117 W Market St,Jeffersonville,Clark,IN,471303300,38.270466,-85.739605,Housing Authority of the City of Jeffersonville,,,,,,,
CLARK ARMS APTS,117 W Market St,Jeffersonville,Clark,IN,471303300,38.270466,-85.739605,Housing Authority of the City of Jeffersonville,,,,,,,
CLARK ARMS APTS,117 W Market St,Jeffersonville,Clark,IN,471303300,38.270466,-85.739605,Housing Authority of the City of Jeffersonville,,,,,,,
CLARK ARMS APTS,117 W Market St,Jeffersonville,Clark,IN,471303300,38.270466,-85.739605,Housing Authority of the City of Jeffersonville,,,,,,,
CLARK ARMS APTS,117 W Market St,Jeffersonville,Clark,IN,471303300,38.270466,-85.739605,Housing Authority of the City of Jeffersonville,,,,,,,
LINCOLN MNR&KENNEDY PLAZA,314 S 8th St,Rockport,Spencer,IN,476351321,37.879564,-87.056189,Rockport Housing Authority,,,,,,,
LINCOLN MNR&KENNEDY PLAZA,314 S 8th St,Rockport,Spencer,IN,476351321,37.879564,-87.056189,Rockport Housing Authority,,,,,,,
LINCOLN MNR&KENNEDY PLAZA,314 S 8th St,Rockport,Spencer,IN,476351321,37.879564,-87.056189,Rockport Housing Authority,,,,,,,
LINCOLN MNR&KENNEDY PLAZA,314 S 8th St,Rockport,Spencer,IN,476351321,37.879564,-87.056189,Rockport Housing Authority,,,,,,,
ROCKPORT HI-RISE,320 N 5th St,Rockport,Spencer,IN,476351439,37.885853,-87.049289,Rockport Housing Authority,,,,,,,
ROCKPORT HI-RISE,320 N 5th St,Rockport,Spencer,IN,476351439,37.885853,-87.049289,Rockport Housing Authority,,,,,,,
ROCKPORT HI-RISE,320 N 5th St,Rockport,Spencer,IN,476351439,37.885853,-87.049289,Rockport Housing Authority,,,,,,,
ROCKPORT HI-RISE,320 N 5th St,Rockport,Spencer,IN,476351439,37.885853,-87.049289,Rockport Housing Authority,,,,,,,
WASHINGTON & LEPHA MACKEY,601 Washington St,Rockport,Spencer,IN,476351272,37.886852,-87.052837,Rockport Housing Authority,,,,,,,
WASHINGTON & LEPHA MACKEY,601 Washington St,Rockport,Spencer,IN,476351272,37.886852,-87.052837,Rockport Housing Authority,,,,,,,
WASHINGTON & LEPHA MACKEY,601 Washington St,Rockport,Spencer,IN,476351272,37.886852,-87.052837,Rockport Housing Authority,,,,,,,
WASHINGTON & LEPHA MACKEY,601 Washington St,Rockport,Spencer,IN,476351272,37.886852,-87.052837,Rockport Housing Authority,,,,,,,
MEADOW WOOD APARTMENTS,635 High St,Charlestown,Clark,IN,471111121,38.440772,-85.663318,Housing Authority of the City of Charlestown,,,,,,,
MEADOW WOOD APARTMENTS,635 High St,Charlestown,Clark,IN,471111121,38.440772,-85.663318,Housing Authority of the City of Charlestown,,,,,,,
MEADOW WOOD APARTMENTS,635 High St,Charlestown,Clark,IN,471111121,38.440772,-85.663318,Housing Authority of the City of Charlestown,,,,,,,
MEADOW WOOD APARTMENTS,635 High St,Charlestown,Clark,IN,471111121,38.440772,-85.663318,Housing Authority of the City of Charlestown,,,,,,,
MEADOW WOOD APARTMENTS,635 High St,Charlestown,Clark,IN,471111121,38.440772,-85.663318,Housing Authority of the City of Charlestown,,,,,,,
WOODRIDGE APARTMENTS,266 Woodridge Dr,Charlestown,Clark,IN,471111058,38.440582,-85.669691,Housing Authority of the City of Charlestown,,,,,,,
WOODRIDGE APARTMENTS,266 Woodridge Dr,Charlestown,Clark,IN,471111058,38.440582,-85.669691,Housing Authority of the City of Charlestown,,,,,,,
WOODRIDGE APARTMENTS,266 Woodridge Dr,Charlestown,Clark,IN,471111058,38.440582,-85.669691,Housing Authority of the City of Charlestown,,,,,,,
WOODRIDGE APARTMENTS,266 Woodridge Dr,Charlestown,Clark,IN,471111058,38.440582,-85.669691,Housing Authority of the City of Charlestown,,,,,,,
WOODRIDGE APARTMENTS,266 Woodridge Dr,Charlestown,Clark,IN,471111058,38.440582,-85.669691,Housing Authority of the City of Charlestown,,,,,,,
BRYSONWOOD APARTMENTS,196 McCampbell St,Charlestown,Clark,IN,471111048,38.439372,-85.668369,Housing Authority of the City of Charlestown,,,,,,,
BRYSONWOOD APARTMENTS,196 McCampbell St,Charlestown,Clark,IN,471111048,38.439372,-85.668369,Housing Authority of the City of Charlestown,,,,,,,
BRYSONWOOD APARTMENTS,196 McCampbell St,Charlestown,Clark,IN,471111048,38.439372,-85.668369,Housing Authority of the City of Charlestown,,,,,,,
BRYSONWOOD APARTMENTS,196 McCampbell St,Charlestown,Clark,IN,471111048,38.439372,-85.668369,Housing Authority of the City of Charlestown,,,,,,,
BRYSONWOOD APARTMENTS,196 McCampbell St,Charlestown,Clark,IN,471111048,38.439372,-85.668369,Housing Authority of the City of Charlestown,,,,,,,
ROSEDALE HI-RISE,501 W Indiana Ave,Elkhart,Elkhart,IN,465162505,41.673852,-85.973869,Housing Authority of the City of Elkhart,,,,,,,
ROSEDALE HI-RISE,501 W Indiana Ave,Elkhart,Elkhart,IN,465162505,41.673852,-85.973869,Housing Authority of the City of Elkhart,,,,,,,
ROSEDALE HI-RISE,501 W Indiana Ave,Elkhart,Elkhart,IN,465162505,41.673852,-85.973869,Housing Authority of the City of Elkhart,,,,,,,
ROSEDALE HI-RISE,501 W Indiana Ave,Elkhart,Elkhart,IN,465162505,41.673852,-85.973869,Housing Authority of the City of Elkhart,,,,,,,
ROSEDALE HI-RISE,501 W Indiana Ave,Elkhart,Elkhart,IN,465162505,41.673852,-85.973869,Housing Authority of the City of Elkhart,,,,,,,
WASHINGTON GARDENS,411 Wagner Ave Apt A,Elkhart,Elkhart,IN,465162587,41.675114,-85.973467,Housing Authority of the City of Elkhart,,,,,,,
WASHINGTON GARDENS,411 Wagner Ave Apt A,Elkhart,Elkhart,IN,465162587,41.675114,-85.973467,Housing Authority of the City of Elkhart,,,,,,,
WASHINGTON GARDENS,411 Wagner Ave Apt A,Elkhart,Elkhart,IN,465162587,41.675114,-85.973467,Housing Authority of the City of Elkhart,,,,,,,
WASHINGTON GARDENS,411 Wagner Ave Apt A,Elkhart,Elkhart,IN,465162587,41.675114,-85.973467,Housing Authority of the City of Elkhart,,,,,,,
WASHINGTON GARDENS,411 Wagner Ave Apt A,Elkhart,Elkhart,IN,465162587,41.675114,-85.973467,Housing Authority of the City of Elkhart,,,,,,,
WATERFALL HI-RISE,303 Waterfall Dr,Elkhart,Elkhart,IN,465163658,41.684512,-85.968428,Housing Authority of the City of Elkhart,,,,,,,
WATERFALL HI-RISE,303 Waterfall Dr,Elkhart,Elkhart,IN,465163658,41.684512,-85.968428,Housing Authority of the City of Elkhart,,,,,,,
WATERFALL HI-RISE,303 Waterfall Dr,Elkhart,Elkhart,IN,465163658,41.684512,-85.968428,Housing Authority of the City of Elkhart,,,,,,,
WATERFALL HI-RISE,303 Waterfall Dr,Elkhart,Elkhart,IN,465163658,41.684512,-85.968428,Housing Authority of the City of Elkhart,,,,,,,
WATERFALL HI-RISE,303 Waterfall Dr,Elkhart,Elkhart,IN,465163658,41.684512,-85.968428,Housing Authority of the City of Elkhart,,,,,,,
SCATTERED SITES,5 Malcolm Dr Apt B,Elkhart,Elkhart,IN,465172656,41.654115,-85.948666,Housing Authority of the City of Elkhart,,,,,,,
SCATTERED SITES,5 Malcolm Dr Apt B,Elkhart,Elkhart,IN,465172656,41.654115,-85.948666,Housing Authority of the City of Elkhart,,,,,,,
SCATTERED SITES,5 Malcolm Dr Apt B,Elkhart,Elkhart,IN,465172656,41.654115,-85.948666,Housing Authority of the City of Elkhart,,,,,,,
SCATTERED SITES,5 Malcolm Dr Apt B,Elkhart,Elkhart,IN,465172656,41.654115,-85.948666,Housing Authority of the City of Elkhart,,,,,,,
SCATTERED SITES,5 Malcolm Dr Apt B,Elkhart,Elkhart,IN,465172656,41.654115,-85.948666,Housing Authority of the City of Elkhart,,,,,,,
RIVERSIDE TERRACE,181 N Elkhart Ave,Elkhart,Elkhart,IN,465163549,41.691429,-85.966794,Housing Authority of the City of Elkhart,,,,,,,
RIVERSIDE TERRACE,181 N Elkhart Ave,Elkhart,Elkhart,IN,465163549,41.691429,-85.966794,Housing Authority of the City of Elkhart,,,,,,,
RIVERSIDE TERRACE,181 N Elkhart Ave,Elkhart,Elkhart,IN,465163549,41.691429,-85.966794,Housing Authority of the City of Elkhart,,,,,,,
RIVERSIDE TERRACE,181 N Elkhart Ave,Elkhart,Elkhart,IN,465163549,41.691429,-85.966794,Housing Authority of the City of Elkhart,,,,,,,
RIVERSIDE TERRACE,181 N Elkhart Ave,Elkhart,Elkhart,IN,465163549,41.691429,-85.966794,Housing Authority of the City of Elkhart,,,,,,,
FRIENDSHIP VILLAGE & LEAGUE CIR,1101 Friendship Vlg,Huntingburg,Dubois,IN,475421270,38.304279,-86.949544,Housing Authority of the City of Huntingburg,,,,,,,
FRIENDSHIP VILLAGE & LEAGUE CIR,1101 Friendship Vlg,Huntingburg,Dubois,IN,475421270,38.304279,-86.949544,Housing Authority of the City of Huntingburg,,,,,,,
FRIENDSHIP VILLAGE & LEAGUE CIR,1101 Friendship Vlg,Huntingburg,Dubois,IN,475421270,38.304279,-86.949544,Housing Authority of the City of Huntingburg,,,,,,,
FRIENDSHIP VILLAGE & LEAGUE CIR,1101 Friendship Vlg,Huntingburg,Dubois,IN,475421270,38.304279,-86.949544,Housing Authority of the City of Huntingburg,,,,,,,
JAMES HUNTER,3625 Pulaski St,East Chicago,Lake,IN,463122162,41.647355,-87.443562,Housing Authority of the City of East Chicago,,,,,,,
JAMES HUNTER,3625 Pulaski St,East Chicago,Lake,IN,463122162,41.647355,-87.443562,Housing Authority of the City of East Chicago,,,,,,,
JAMES HUNTER,3625 Pulaski St,East Chicago,Lake,IN,463122162,41.647355,-87.443562,Housing Authority of the City of East Chicago,,,,,,,
JAMES HUNTER,3625 Pulaski St,East Chicago,Lake,IN,463122162,41.647355,-87.443562,Housing Authority of the City of East Chicago,,,,,,,
JAMES HUNTER,3625 Pulaski St,East Chicago,Lake,IN,463122162,41.647355,-87.443562,Housing Authority of the City of East Chicago,,,,,,,
JAMES HUNTER,3625 Pulaski St,East Chicago,Lake,IN,463122162,41.647355,-87.443562,Housing Authority of the City of East Chicago,,,,,,,
JAMES HUNTER,3625 Pulaski St,East Chicago,Lake,IN,463122162,41.647355,-87.443562,Housing Authority of the City of East Chicago,,,,,,,
SCATTERED SITES,3615 Parrish Ave,East Chicago,Lake,IN,463122126,41.647464,-87.451955,Housing Authority of the City of East Chicago,,,,,,,
SCATTERED SITES,3615 Parrish Ave,East Chicago,Lake,IN,463122126,41.647464,-87.451955,Housing Authority of the City of East Chicago,,,,,,,
SCATTERED SITES,3615 Parrish Ave,East Chicago,Lake,IN,463122126,41.647464,-87.451955,Housing Authority of the City of East Chicago,,,,,,,
SCATTERED SITES,3615 Parrish Ave,East Chicago,Lake,IN,463122126,41.647464,-87.451955,Housing Authority of the City of East Chicago,,,,,,,
SCATTERED SITES,3615 Parrish Ave,East Chicago,Lake,IN,463122126,41.647464,-87.451955,Housing Authority of the City of East Chicago,,,,,,,
SCATTERED SITES,3615 Parrish Ave,East Chicago,Lake,IN,463122126,41.647464,-87.451955,Housing Authority of the City of East Chicago,,,,,,,
SCATTERED SITES,3615 Parrish Ave,East Chicago,Lake,IN,463122126,41.647464,-87.451955,Housing Authority of the City of East Chicago,,,,,,,
JOHN B NICOSIA,4720 Railroad Ave,East Chicago,Lake,IN,463123360,41.62887,-87.47633,Housing Authority of the City of East Chicago,,,,,,,
JOHN B NICOSIA,4720 Railroad Ave,East Chicago,Lake,IN,463123360,41.62887,-87.47633,Housing Authority of the City of East Chicago,,,,,,,
JOHN B NICOSIA,4720 Railroad Ave,East Chicago,Lake,IN,463123360,41.62887,-87.47633,Housing Authority of the City of East Chicago,,,,,,,
JOHN B NICOSIA,4720 Railroad Ave,East Chicago,Lake,IN,463123360,41.62887,-87.47633,Housing Authority of the City of East Chicago,,,,,,,
JOHN B NICOSIA,4720 Railroad Ave,East Chicago,Lake,IN,463123360,41.62887,-87.47633,Housing Authority of the City of East Chicago,,,,,,,
JOHN B NICOSIA,4720 Railroad Ave,East Chicago,Lake,IN,463123360,41.62887,-87.47633,Housing Authority of the City of East Chicago,,,,,,,
JOHN B NICOSIA,4720 Railroad Ave,East Chicago,Lake,IN,463123360,41.62887,-87.47633,Housing Authority of the City of East Chicago,,,,,,,
WEST CALUMET COMPLEX,4700 Larkspur St,East Chicago,Lake,IN,463123764,41.623309,-87.470346,Housing Authority of the City of East Chicago,,,,,,,
WEST CALUMET COMPLEX,4700 Larkspur St,East Chicago,Lake,IN,463123764,41.623309,-87.470346,Housing Authority of the City of East Chicago,,,,,,,
WEST CALUMET COMPLEX,4700 Larkspur St,East Chicago,Lake,IN,463123764,41.623309,-87.470346,Housing Authority of the City of East Chicago,,,,,,,
WEST CALUMET COMPLEX,4700 Larkspur St,East Chicago,Lake,IN,463123764,41.623309,-87.470346,Housing Authority of the City of East Chicago,,,,,,,
WEST CALUMET COMPLEX,4700 Larkspur St,East Chicago,Lake,IN,463123764,41.623309,-87.470346,Housing Authority of the City of East Chicago,,,,,,,
WEST CALUMET COMPLEX,4700 Larkspur St,East Chicago,Lake,IN,463123764,41.623309,-87.470346,Housing Authority of the City of East Chicago,,,,,,,
WEST CALUMET COMPLEX,4700 Larkspur St,East Chicago,Lake,IN,463123764,41.623309,-87.470346,Housing Authority of the City of East Chicago,,,,,,,
EAST CHICAGO,1301 E Columbus Dr,East Chicago,Lake,IN,463122854,41.638903,-87.45515,Housing Authority of the City of East Chicago,,,,,,,
EAST CHICAGO,1301 E Columbus Dr,East Chicago,Lake,IN,463122854,41.638903,-87.45515,Housing Authority of the City of East Chicago,,,,,,,
EAST CHICAGO,1301 E Columbus Dr,East Chicago,Lake,IN,463122854,41.638903,-87.45515,Housing Authority of the City of East Chicago,,,,,,,
EAST CHICAGO,1301 E Columbus Dr,East Chicago,Lake,IN,463122854,41.638903,-87.45515,Housing Authority of the City of East Chicago,,,,,,,
EAST CHICAGO,1301 E Columbus Dr,East Chicago,Lake,IN,463122854,41.638903,-87.45515,Housing Authority of the City of East Chicago,,,,,,,
EAST CHICAGO,1301 E Columbus Dr,East Chicago,Lake,IN,463122854,41.638903,-87.45515,Housing Authority of the City of East Chicago,,,,,,,
EAST CHICAGO,1301 E Columbus Dr,East Chicago,Lake,IN,463122854,41.638903,-87.45515,Housing Authority of the City of East Chicago,,,,,,,
SCATTERED SITES,3472 Guthrie St,East Chicago,Lake,IN,463122056,41.649664,-87.446018,Housing Authority of the City of East Chicago,,,,,,,
SCATTERED SITES,3472 Guthrie St,East Chicago,Lake,IN,463122056,41.649664,-87.446018,Housing Authority of the City of East Chicago,,,,,,,
SCATTERED SITES,3472 Guthrie St,East Chicago,Lake,IN,463122056,41.649664,-87.446018,Housing Authority of the City of East Chicago,,,,,,,
SCATTERED SITES,3472 Guthrie St,East Chicago,Lake,IN,463122056,41.649664,-87.446018,Housing Authority of the City of East Chicago,,,,,,,
SCATTERED SITES,3472 Guthrie St,East Chicago,Lake,IN,463122056,41.649664,-87.446018,Housing Authority of the City of East Chicago,,,,,,,
SCATTERED SITES,3472 Guthrie St,East Chicago,Lake,IN,463122056,41.649664,-87.446018,Housing Authority of the City of East Chicago,,,,,,,
SCATTERED SITES,3472 Guthrie St,East Chicago,Lake,IN,463122056,41.649664,-87.446018,Housing Authority of the City of East Chicago,,,,,,,
WASHINGTON TOWERS,520 SE 2nd St,Washington,Daviess,IN,475014042,38.652232,-87.173121,Washington Housing Authority,,,,,,,
WASHINGTON TOWERS,520 SE 2nd St,Washington,Daviess,IN,475014042,38.652232,-87.173121,Washington Housing Authority,,,,,,,
WASHINGTON TOWERS,520 SE 2nd St,Washington,Daviess,IN,475014042,38.652232,-87.173121,Washington Housing Authority,,,,,,,
SCATTERED SITES,619 SW 5th St,Washington,Daviess,IN,475013979,38.651464,-87.180959,Washington Housing Authority,,,,,,,
SCATTERED SITES,619 SW 5th St,Washington,Daviess,IN,475013979,38.651464,-87.180959,Washington Housing Authority,,,,,,,
SCATTERED SITES,619 SW 5th St,Washington,Daviess,IN,475013979,38.651464,-87.180959,Washington Housing Authority,,,,,,,
SCATTERED SITES,619 SW 5th St,Washington,Daviess,IN,475013979,38.651464,-87.180959,Washington Housing Authority,,,,,,,
HAUCK HOUSE APARTMENTS.,1305 K St,Bedford,Lawrence,IN,474213248,38.86448,-86.485899,Housing Authority of the City of Bedford,,,,,,,
HAUCK HOUSE APARTMENTS.,1305 K St,Bedford,Lawrence,IN,474213248,38.86448,-86.485899,Housing Authority of the City of Bedford,,,,,,,
HAUCK HOUSE APARTMENTS.,1305 K St,Bedford,Lawrence,IN,474213248,38.86448,-86.485899,Housing Authority of the City of Bedford,,,,,,,
HAUCK HOUSE APARTMENTS.,1305 K St,Bedford,Lawrence,IN,474213248,38.86448,-86.485899,Housing Authority of the City of Bedford,,,,,,,
HAUCK HOUSE APARTMENTS.,1305 K St,Bedford,Lawrence,IN,474213248,38.86448,-86.485899,Housing Authority of the City of Bedford,,,,,,,
HAMILTON COURTS,17 Day Ct,Bedford,Lawrence,IN,474213070,38.864725,-86.503741,Housing Authority of the City of Bedford,,,,,,,
HAMILTON COURTS,17 Day Ct,Bedford,Lawrence,IN,474213070,38.864725,-86.503741,Housing Authority of the City of Bedford,,,,,,,
HAMILTON COURTS,17 Day Ct,Bedford,Lawrence,IN,474213070,38.864725,-86.503741,Housing Authority of the City of Bedford,,,,,,,
HAMILTON COURTS,17 Day Ct,Bedford,Lawrence,IN,474213070,38.864725,-86.503741,Housing Authority of the City of Bedford,,,,,,,
HAMILTON COURTS,17 Day Ct,Bedford,Lawrence,IN,474213070,38.864725,-86.503741,Housing Authority of the City of Bedford,,,,,,,
BLOOMFIELD HOUSING AUTHORIT,PO Box 801,Bloomfield,Greene,IN,474240801,39.0276,-86.9331,Bloomfield Housing Authority,,,,,,,
BLOOMFIELD HOUSING AUTHORIT,PO Box 801,Bloomfield,Greene,IN,474240801,39.0276,-86.9331,Bloomfield Housing Authority,,,,,,,
BLOOMFIELD HOUSING AUTHORIT,PO Box 801,Bloomfield,Greene,IN,474240801,39.0276,-86.9331,Bloomfield Housing Authority,,,,,,,
BLOOMFIELD HOUSING AUTHORIT,PO Box 801,Bloomfield,Greene,IN,474240801,39.0276,-86.9331,Bloomfield Housing Authority,,,,,,,
SUNRISE TOWERS,200 Sunrise Towers,Sullivan,Sullivan,IN,478821273,39.097103,-87.408628,Sullivan Housing Authority,,,,,,,
SUNRISE TOWERS,200 Sunrise Towers,Sullivan,Sullivan,IN,478821273,39.097103,-87.408628,Sullivan Housing Authority,,,,,,,
SUNRISE TOWERS,200 Sunrise Towers,Sullivan,Sullivan,IN,478821273,39.097103,-87.408628,Sullivan Housing Authority,,,,,,,
SUNRISE TOWERS,200 Sunrise Towers,Sullivan,Sullivan,IN,478821273,39.097103,-87.408628,Sullivan Housing Authority,,,,,,,
SUNRISE TOWERS,200 Sunrise Towers,Sullivan,Sullivan,IN,478821273,39.097103,-87.408628,Sullivan Housing Authority,,,,,,,
SULLIVAN MANOR,3 Stewart Ct,Sullivan,Sullivan,IN,478821334,39.099562,-87.40017,Sullivan Housing Authority,,,,,,,
SULLIVAN MANOR,3 Stewart Ct,Sullivan,Sullivan,IN,478821334,39.099562,-87.40017,Sullivan Housing Authority,,,,,,,
SULLIVAN MANOR,3 Stewart Ct,Sullivan,Sullivan,IN,478821334,39.099562,-87.40017,Sullivan Housing Authority,,,,,,,
SULLIVAN MANOR,3 Stewart Ct,Sullivan,Sullivan,IN,478821334,39.099562,-87.40017,Sullivan Housing Authority,,,,,,,
SULLIVAN MANOR,3 Stewart Ct,Sullivan,Sullivan,IN,478821334,39.099562,-87.40017,Sullivan Housing Authority,,,,,,,
COURT PLAZA,100 N Court St,Sullivan,Sullivan,IN,478821213,39.096448,-87.408567,Sullivan Housing Authority,,,,,,,
COURT PLAZA,100 N Court St,Sullivan,Sullivan,IN,478821213,39.096448,-87.408567,Sullivan Housing Authority,,,,,,,
COURT PLAZA,100 N Court St,Sullivan,Sullivan,IN,478821213,39.096448,-87.408567,Sullivan Housing Authority,,,,,,,
COURT PLAZA,100 N Court St,Sullivan,Sullivan,IN,478821213,39.096448,-87.408567,Sullivan Housing Authority,,,,,,,
COURT PLAZA,100 N Court St,Sullivan,Sullivan,IN,478821213,39.096448,-87.408567,Sullivan Housing Authority,,,,,,,
PARKVIEW TERRACE,333 N Stewart St,Sullivan,Sullivan,IN,478821348,39.098818,-87.400006,Sullivan Housing Authority,,,,,,,
PARKVIEW TERRACE,333 N Stewart St,Sullivan,Sullivan,IN,478821348,39.098818,-87.400006,Sullivan Housing Authority,,,,,,,
PARKVIEW TERRACE,333 N Stewart St,Sullivan,Sullivan,IN,478821348,39.098818,-87.400006,Sullivan Housing Authority,,,,,,,
PARKVIEW TERRACE,333 N Stewart St,Sullivan,Sullivan,IN,478821348,39.098818,-87.400006,Sullivan Housing Authority,,,,,,,
PARKVIEW TERRACE,333 N Stewart St,Sullivan,Sullivan,IN,478821348,39.098818,-87.400006,Sullivan Housing Authority,,,,,,,
FAMILY SELF SUFFICIENCY,34 Stewart Ct,Sullivan,Sullivan,IN,478821364,39.09989,-87.400143,Sullivan Housing Authority,,,,,,,
FAMILY SELF SUFFICIENCY,34 Stewart Ct,Sullivan,Sullivan,IN,478821364,39.09989,-87.400143,Sullivan Housing Authority,,,,,,,
FAMILY SELF SUFFICIENCY,34 Stewart Ct,Sullivan,Sullivan,IN,478821364,39.09989,-87.400143,Sullivan Housing Authority,,,,,,,
FAMILY SELF SUFFICIENCY,34 Stewart Ct,Sullivan,Sullivan,IN,478821364,39.09989,-87.400143,Sullivan Housing Authority,,,,,,,
FAMILY SELF SUFFICIENCY,34 Stewart Ct,Sullivan,Sullivan,IN,478821364,39.09989,-87.400143,Sullivan Housing Authority,,,,,,,
COOPER TOWERS,120 W Jackson St,Brazil,Clay,IN,478342555,39.521687,-87.128871,Brazil Housing Authority,,,,,,,
COOPER TOWERS,120 W Jackson St,Brazil,Clay,IN,478342555,39.521687,-87.128871,Brazil Housing Authority,,,,,,,
COOPER TOWERS,120 W Jackson St,Brazil,Clay,IN,478342555,39.521687,-87.128871,Brazil Housing Authority,,,,,,,
COOPER TOWERS,120 W Jackson St,Brazil,Clay,IN,478342555,39.521687,-87.128871,Brazil Housing Authority,,,,,,,
COOPER TOWERS,120 W Jackson St,Brazil,Clay,IN,478342555,39.521687,-87.128871,Brazil Housing Authority,,,,,,,
Jackson Gardens & Central West Vi,122 W Jackson St Apt 221,Brazil,Clay,IN,478342564,39.521681,-87.128895,Brazil Housing Authority,,,,,,,
Jackson Gardens & Central West Vi,122 W Jackson St Apt 221,Brazil,Clay,IN,478342564,39.521681,-87.128895,Brazil Housing Authority,,,,,,,
Jackson Gardens & Central West Vi,122 W Jackson St Apt 221,Brazil,Clay,IN,478342564,39.521681,-87.128895,Brazil Housing Authority,,,,,,,
Jackson Gardens & Central West Vi,122 W Jackson St Apt 221,Brazil,Clay,IN,478342564,39.521681,-87.128895,Brazil Housing Authority,,,,,,,
Jackson Gardens & Central West Vi,122 W Jackson St Apt 221,Brazil,Clay,IN,478342564,39.521681,-87.128895,Brazil Housing Authority,,,,,,,
MERIDIAN TOWERS,120 W National Ave,Brazil,Clay,IN,478342566,39.522528,-87.129131,Brazil Housing Authority,,,,,,,
MERIDIAN TOWERS,120 W National Ave,Brazil,Clay,IN,478342566,39.522528,-87.129131,Brazil Housing Authority,,,,,,,
MERIDIAN TOWERS,120 W National Ave,Brazil,Clay,IN,478342566,39.522528,-87.129131,Brazil Housing Authority,,,,,,,
MERIDIAN TOWERS,120 W National Ave,Brazil,Clay,IN,478342566,39.522528,-87.129131,Brazil Housing Authority,,,,,,,
MERIDIAN TOWERS,120 W National Ave,Brazil,Clay,IN,478342566,39.522528,-87.129131,Brazil Housing Authority,,,,,,,
LAMPLIGHTER SENIOR CITIZEN CO,240 Angling Rd Apt 11,Kendallville,Noble,IN,467551068,41.454351,-85.273231,Housing Authority of the City of Kendallville,,,,,,,
LAMPLIGHTER SENIOR CITIZEN CO,240 Angling Rd Apt 11,Kendallville,Noble,IN,467551068,41.454351,-85.273231,Housing Authority of the City of Kendallville,,,,,,,
LAMPLIGHTER SENIOR CITIZEN CO,240 Angling Rd Apt 11,Kendallville,Noble,IN,467551068,41.454351,-85.273231,Housing Authority of the City of Kendallville,,,,,,,
LAMPLIGHTER SENIOR CITIZEN CO,240 Angling Rd Apt 11,Kendallville,Noble,IN,467551068,41.454351,-85.273231,Housing Authority of the City of Kendallville,,,,,,,
LAMPLIGHTER SENIOR CITIZEN CO,240 Angling Rd Apt 22,Kendallville,Noble,IN,467551068,41.454351,-85.273231,Housing Authority of the City of Kendallville,,,,,,,
LAMPLIGHTER SENIOR CITIZEN CO,240 Angling Rd Apt 22,Kendallville,Noble,IN,467551068,41.454351,-85.273231,Housing Authority of the City of Kendallville,,,,,,,
LAMPLIGHTER SENIOR CITIZEN CO,240 Angling Rd Apt 22,Kendallville,Noble,IN,467551068,41.454351,-85.273231,Housing Authority of the City of Kendallville,,,,,,,
LAMPLIGHTER SENIOR CITIZEN CO,240 Angling Rd Apt 22,Kendallville,Noble,IN,467551068,41.454351,-85.273231,Housing Authority of the City of Kendallville,,,,,,,
CLOVERLEAF CIRCLE,1500 Jefferson St,Mount Vernon,Posey,IN,476201282,37.943534,-87.899782,Mount Vernon Housing Authority,,,,,,,
CLOVERLEAF CIRCLE,1500 Jefferson St,Mount Vernon,Posey,IN,476201282,37.943534,-87.899782,Mount Vernon Housing Authority,,,,,,,
CLOVERLEAF CIRCLE,1500 Jefferson St,Mount Vernon,Posey,IN,476201282,37.943534,-87.899782,Mount Vernon Housing Authority,,,,,,,
CLOVERLEAF CIRCLE,1500 Jefferson St,Mount Vernon,Posey,IN,476201282,37.943534,-87.899782,Mount Vernon Housing Authority,,,,,,,
ELLIOTT MANOR,617 Williams St,Angola,Steuben,IN,467031173,41.642019,-84.994812,Housing Authority of the City of Angola,,,,,,,
ELLIOTT MANOR,617 Williams St,Angola,Steuben,IN,467031173,41.642019,-84.994812,Housing Authority of the City of Angola,,,,,,,
ELLIOTT MANOR,617 Williams St,Angola,Steuben,IN,467031173,41.642019,-84.994812,Housing Authority of the City of Angola,,,,,,,
NORTHLAKE MANOR,110 Ivywood Ct,Angola,Steuben,IN,467031043,41.656448,-85.005873,Housing Authority of the City of Angola,,,,,,,
NORTHLAKE MANOR,110 Ivywood Ct,Angola,Steuben,IN,467031043,41.656448,-85.005873,Housing Authority of the City of Angola,,,,,,,
NORTHLAKE MANOR,110 Ivywood Ct,Angola,Steuben,IN,467031043,41.656448,-85.005873,Housing Authority of the City of Angola,,,,,,,
MASON HOMES,1202 Upton St,Marion,Grant,IN,469531464,40.549584,-85.680869,"Housing Authority of the City of Marion, IN",,,,,,,
MASON HOMES,1202 Upton St,Marion,Grant,IN,469531464,40.549584,-85.680869,"Housing Authority of the City of Marion, IN",,,,,,,
MASON HOMES,1202 Upton St,Marion,Grant,IN,469531464,40.549584,-85.680869,"Housing Authority of the City of Marion, IN",,,,,,,
MASON HOMES,1202 Upton St,Marion,Grant,IN,469531464,40.549584,-85.680869,"Housing Authority of the City of Marion, IN",,,,,,,
TORRENCE HOMES,620 W Coulton Ct,Marion,Grant,IN,469533559,40.536549,-85.666134,"Housing Authority of the City of Marion, IN",,,,,,,
TORRENCE HOMES,620 W Coulton Ct,Marion,Grant,IN,469533559,40.536549,-85.666134,"Housing Authority of the City of Marion, IN",,,,,,,
TORRENCE HOMES,620 W Coulton Ct,Marion,Grant,IN,469533559,40.536549,-85.666134,"Housing Authority of the City of Marion, IN",,,,,,,
TORRENCE HOMES,620 W Coulton Ct,Marion,Grant,IN,469533559,40.536549,-85.666134,"Housing Authority of the City of Marion, IN",,,,,,,
NORMAN MANOR,121 N Washington St,Marion,Grant,IN,469522868,40.5621,-85.660023,"Housing Authority of the City of Marion, IN",,,,,,,
NORMAN MANOR,121 N Washington St,Marion,Grant,IN,469522868,40.5621,-85.660023,"Housing Authority of the City of Marion, IN",,,,,,,
NORMAN MANOR,121 N Washington St,Marion,Grant,IN,469522868,40.5621,-85.660023,"Housing Authority of the City of Marion, IN",,,,,,,
NORMAN MANOR,121 N Washington St,Marion,Grant,IN,469522868,40.5621,-85.660023,"Housing Authority of the City of Marion, IN",,,,,,,
RIVERSIDE,708 N River Dr Apt 111,Marion,Grant,IN,469522693,40.568437,-85.6634,"Housing Authority of the City of Marion, IN",,,,,,,
RIVERSIDE,708 N River Dr Apt 111,Marion,Grant,IN,469522693,40.568437,-85.6634,"Housing Authority of the City of Marion, IN",,,,,,,
RIVERSIDE,708 N River Dr Apt 111,Marion,Grant,IN,469522693,40.568437,-85.6634,"Housing Authority of the City of Marion, IN",,,,,,,
RIVERSIDE,708 N River Dr Apt 111,Marion,Grant,IN,469522693,40.568437,-85.6634,"Housing Authority of the City of Marion, IN",,,,,,,
MARTIN BOOTS,619 W 3rd St,Marion,Grant,IN,469523784,40.558646,-85.665486,"Housing Authority of the City of Marion, IN",,,,,,,
MARTIN BOOTS,619 W 3rd St,Marion,Grant,IN,469523784,40.558646,-85.665486,"Housing Authority of the City of Marion, IN",,,,,,,
MARTIN BOOTS,619 W 3rd St,Marion,Grant,IN,469523784,40.558646,-85.665486,"Housing Authority of the City of Marion, IN",,,,,,,
MARTIN BOOTS,619 W 3rd St,Marion,Grant,IN,469523784,40.558646,-85.665486,"Housing Authority of the City of Marion, IN",,,,,,,
MAPLEWOOD TERRACE,274 S 14th St,New Castle,Henry,IN,473623373,39.929155,-85.369079,New Castle Housing Authority,,,,,,,
MAPLEWOOD TERRACE,274 S 14th St,New Castle,Henry,IN,473623373,39.929155,-85.369079,New Castle Housing Authority,,,,,,,
MAPLEWOOD TERRACE,274 S 14th St,New Castle,Henry,IN,473623373,39.929155,-85.369079,New Castle Housing Authority,,,,,,,
MAPLEWOOD TERRACE,274 S 14th St,New Castle,Henry,IN,473623373,39.929155,-85.369079,New Castle Housing Authority,,,,,,,
MAPLEWOOD TERRACE,274 S 14th St,New Castle,Henry,IN,473623373,39.929155,-85.369079,New Castle Housing Authority,,,,,,,
GEMINI APARTMENTS,720 S 15th St,New Castle,Henry,IN,473623255,39.924972,-85.367345,New Castle Housing Authority,,,,,,,
GEMINI APARTMENTS,720 S 15th St,New Castle,Henry,IN,473623255,39.924972,-85.367345,New Castle Housing Authority,,,,,,,
GEMINI APARTMENTS,720 S 15th St,New Castle,Henry,IN,473623255,39.924972,-85.367345,New Castle Housing Authority,,,,,,,
GEMINI APARTMENTS,720 S 15th St,New Castle,Henry,IN,473623255,39.924972,-85.367345,New Castle Housing Authority,,,,,,,
GEMINI APARTMENTS,720 S 15th St,New Castle,Henry,IN,473623255,39.924972,-85.367345,New Castle Housing Authority,,,,,,,
LINTON HOUSING AUTHORITY,RR 2 Box 657,Linton,Greene,IN,474419601,39.0295,-87.1602,Linton Housing Authority,,,,,,,
LINTON HOUSING AUTHORITY,RR 2 Box 657,Linton,Greene,IN,474419601,39.0295,-87.1602,Linton Housing Authority,,,,,,,
LINTON HOUSING AUTHORITY,RR 2 Box 657,Linton,Greene,IN,474419601,39.0295,-87.1602,Linton Housing Authority,,,,,,,
LINTON HOUSING AUTHORITY,RR 2 Box 657,Linton,Greene,IN,474419601,39.0295,-87.1602,Linton Housing Authority,,,,,,,
SYCAMORE PLACE,222 Sycamore St,Columbus,Bartholomew,IN,472016898,39.20074,-85.915936,Columbus Housing Authority,,,,,,,
SYCAMORE PLACE,222 Sycamore St,Columbus,Bartholomew,IN,472016898,39.20074,-85.915936,Columbus Housing Authority,,,,,,,
SYCAMORE PLACE,222 Sycamore St,Columbus,Bartholomew,IN,472016898,39.20074,-85.915936,Columbus Housing Authority,,,,,,,
SYCAMORE PLACE,222 Sycamore St,Columbus,Bartholomew,IN,472016898,39.20074,-85.915936,Columbus Housing Authority,,,,,,,
SYCAMORE PLACE,222 Sycamore St,Columbus,Bartholomew,IN,472016898,39.20074,-85.915936,Columbus Housing Authority,,,,,,,
HERITAGE WOODS,McClure Road,Columbus,Bartholomew,IN,47201,39.1882,-85.9769,Columbus Housing Authority,,,,,,,
HERITAGE WOODS,McClure Road,Columbus,Bartholomew,IN,47201,39.1882,-85.9769,Columbus Housing Authority,,,,,,,
HERITAGE WOODS,McClure Road,Columbus,Bartholomew,IN,47201,39.1882,-85.9769,Columbus Housing Authority,,,,,,,
HERITAGE WOODS,McClure Road,Columbus,Bartholomew,IN,47201,39.1882,-85.9769,Columbus Housing Authority,,,,,,,
HERITAGE WOODS,McClure Road,Columbus,Bartholomew,IN,47201,39.1882,-85.9769,Columbus Housing Authority,,,,,,,
PENCE PLACE,Pence Street,Columbus,Bartholomew,IN,47201,39.1882,-85.9769,Columbus Housing Authority,,,,,,,
PENCE PLACE,Pence Street,Columbus,Bartholomew,IN,47201,39.1882,-85.9769,Columbus Housing Authority,,,,,,,
PENCE PLACE,Pence Street,Columbus,Bartholomew,IN,47201,39.1882,-85.9769,Columbus Housing Authority,,,,,,,
PENCE PLACE,Pence Street,Columbus,Bartholomew,IN,47201,39.1882,-85.9769,Columbus Housing Authority,,,,,,,
PENCE PLACE,Pence Street,Columbus,Bartholomew,IN,47201,39.1882,-85.9769,Columbus Housing Authority,,,,,,,
SCATTERED SITES,736 Smith St,Columbus,Bartholomew,IN,472016506,39.206451,-85.896744,Columbus Housing Authority,,,,,,,
SCATTERED SITES,736 Smith St,Columbus,Bartholomew,IN,472016506,39.206451,-85.896744,Columbus Housing Authority,,,,,,,
SCATTERED SITES,736 Smith St,Columbus,Bartholomew,IN,472016506,39.206451,-85.896744,Columbus Housing Authority,,,,,,,
SCATTERED SITES,736 Smith St,Columbus,Bartholomew,IN,472016506,39.206451,-85.896744,Columbus Housing Authority,,,,,,,
SCATTERED SITES,736 Smith St,Columbus,Bartholomew,IN,472016506,39.206451,-85.896744,Columbus Housing Authority,,,,,,,
Scattered Sites,955 McClure Rd,Columbus,Bartholomew,IN,472016612,39.208325,-85.889599,Columbus Housing Authority,,,,,,,
Scattered Sites,955 McClure Rd,Columbus,Bartholomew,IN,472016612,39.208325,-85.889599,Columbus Housing Authority,,,,,,,
Scattered Sites,955 McClure Rd,Columbus,Bartholomew,IN,472016612,39.208325,-85.889599,Columbus Housing Authority,,,,,,,
Scattered Sites,955 McClure Rd,Columbus,Bartholomew,IN,472016612,39.208325,-85.889599,Columbus Housing Authority,,,,,,,
Scattered Sites,955 McClure Rd,Columbus,Bartholomew,IN,472016612,39.208325,-85.889599,Columbus Housing Authority,,,,,,,
TILLY ESTATE,1 Hodge St,Bicknell,Knox,IN,475129670,38.768152,-87.318417,Knox County Housing Authority,,,,,,,
TILLY ESTATE,1 Hodge St,Bicknell,Knox,IN,475129670,38.768152,-87.318417,Knox County Housing Authority,,,,,,,
TILLY ESTATE,1 Hodge St,Bicknell,Knox,IN,475129670,38.768152,-87.318417,Knox County Housing Authority,,,,,,,
TILLY ESTATE,1 Hodge St,Bicknell,Knox,IN,475129670,38.768152,-87.318417,Knox County Housing Authority,,,,,,,
TILLY ESTATE,1 Hodge St,Bicknell,Knox,IN,475129670,38.768152,-87.318417,Knox County Housing Authority,,,,,,,
PUBLIC HOUSING,Wilson St,Bicknell,Knox,IN,47512,38.7726,-87.3067,Knox County Housing Authority,,,,,,,
PUBLIC HOUSING,Wilson St,Bicknell,Knox,IN,47512,38.7726,-87.3067,Knox County Housing Authority,,,,,,,
PUBLIC HOUSING,Wilson St,Bicknell,Knox,IN,47512,38.7726,-87.3067,Knox County Housing Authority,,,,,,,
PUBLIC HOUSING,Wilson St,Bicknell,Knox,IN,47512,38.7726,-87.3067,Knox County Housing Authority,,,,,,,
PUBLIC HOUSING,Wilson St,Bicknell,Knox,IN,47512,38.7726,-87.3067,Knox County Housing Authority,,,,,,,
KNOX COUNTY PHA,Bruceville Apts,Bruceville,Knox,IN,47516,38.7982,-87.4534,Knox County Housing Authority,,,,,,,
KNOX COUNTY PHA,Bruceville Apts,Bruceville,Knox,IN,47516,38.7982,-87.4534,Knox County Housing Authority,,,,,,,
KNOX COUNTY PHA,Bruceville Apts,Bruceville,Knox,IN,47516,38.7982,-87.4534,Knox County Housing Authority,,,,,,,
KNOX COUNTY PHA,Bruceville Apts,Bruceville,Knox,IN,47516,38.7982,-87.4534,Knox County Housing Authority,,,,,,,
KNOX COUNTY PHA,Bruceville Apts,Bruceville,Knox,IN,47516,38.7982,-87.4534,Knox County Housing Authority,,,,,,,
BROCKVILLE COMMONS,200 W. SPRING,FREMONT,Steuben,IN,467370189,41.7297,-84.9504,Fremont Housing Authority,,,,,,,
BROCKVILLE COMMONS,200 W. SPRING,FREMONT,Steuben,IN,467370189,41.7297,-84.9504,Fremont Housing Authority,,,,,,,
BROCKVILLE COMMONS,200 W. SPRING,FREMONT,Steuben,IN,467370189,41.7297,-84.9504,Fremont Housing Authority,,,,,,,
BROCKVILLE COMMONS,200 W. SPRING,FREMONT,Steuben,IN,467370189,41.7297,-84.9504,Fremont Housing Authority,,,,,,,
FRONT ST CT&SYLVAN MANOR,150 Kerr Ave Apt 1,Rome City,Noble,IN,467849779,41.492813,-85.375259,Housing Authority of the City of Rome City,,,,,,,
FRONT ST CT&SYLVAN MANOR,150 Kerr Ave Apt 1,Rome City,Noble,IN,467849779,41.492813,-85.375259,Housing Authority of the City of Rome City,,,,,,,
FRONT ST CT&SYLVAN MANOR,150 Kerr Ave Apt 1,Rome City,Noble,IN,467849779,41.492813,-85.375259,Housing Authority of the City of Rome City,,,,,,,
FRONT ST CT&SYLVAN MANOR,150 Kerr Ave Apt 1,Rome City,Noble,IN,467849779,41.492813,-85.375259,Housing Authority of the City of Rome City,,,,,,,
FRONT ST CT&SYLVAN MANOR,150 Kerr Ave Apt 1,Rome City,Noble,IN,467849779,41.492813,-85.375259,Housing Authority of the City of Rome City,,,,,,,
GREENDALE VILLAGE APTS,489 Ludlow St,Greendale,Dearborn,IN,470251579,39.107362,-84.864073,Greendale Housing Authority,,,,,,,
GREENDALE VILLAGE APTS,489 Ludlow St,Greendale,Dearborn,IN,470251579,39.107362,-84.864073,Greendale Housing Authority,,,,,,,
GREENDALE VILLAGE APTS,489 Ludlow St,Greendale,Dearborn,IN,470251579,39.107362,-84.864073,Greendale Housing Authority,,,,,,,
GREENDALE VILLAGE APTS,489 Ludlow St,Greendale,Dearborn,IN,470251579,39.107362,-84.864073,Greendale Housing Authority,,,,,,,
EASTWOOD PLACE,701 E Main St Slip 1,Peru,Miami,IN,469702663,40.7618,-86.048033,Housing Authority of the City of Peru,,,,,,,
EASTWOOD PLACE,701 E Main St Slip 1,Peru,Miami,IN,469702663,40.7618,-86.048033,Housing Authority of the City of Peru,,,,,,,
EASTWOOD PLACE,701 E Main St Slip 1,Peru,Miami,IN,469702663,40.7618,-86.048033,Housing Authority of the City of Peru,,,,,,,
EASTWOOD PLACE,701 E Main St Slip 1,Peru,Miami,IN,469702663,40.7618,-86.048033,Housing Authority of the City of Peru,,,,,,,
BEACON HEIGHTS,2210 Beacon St,Fort Wayne,Allen,IN,468054766,41.096414,-85.103141,Fort Wayne Housing Authority,,,,,,,
BROOKMILL COURT,2804 Millbrook Dr,Fort Wayne,Allen,IN,468023830,41.05895,-85.168939,Fort Wayne Housing Authority,,,,,,,
TALL OAKS,7300 Decatur Rd,Fort Wayne,Allen,IN,468163950,41.018042,-85.114763,Fort Wayne Housing Authority,,,,,,,
NORTH HIGHLANDS,2100 Saint Marys Ave,Fort Wayne,Allen,IN,468082362,41.09426,-85.155886,Fort Wayne Housing Authority,,,,,,,
PARKVIEW APTS,1633 N Brady St,Muncie,Delaware,IN,473033155,40.208075,-85.368985,Housing Authority of the City of Muncie,,,,,,,
EARTHSTONE TERRACE,3306 S Juniper Ln,Muncie,Delaware,IN,473026101,40.163544,-85.362715,Housing Authority of the City of Muncie,,,,,,,
GILLESPIE TOWER,701 W Jackson St,Muncie,Delaware,IN,473051571,40.192752,-85.393203,Housing Authority of the City of Muncie,,,,,,,
R.A.GREENE SOUTHERN PINES,4312 S Pinewood Dr,Muncie,Delaware,IN,473026213,40.155822,-85.387053,Housing Authority of the City of Muncie,,,,,,,
WESTVALE MANOR,2207 Fulton St,Anderson,Madison,IN,460163657,40.093501,-85.708699,Housing Authority of the City of Anderson,,,,,,,
CIVIC CENTER TOWER,605 S Bell St,Kokomo,Howard,IN,469015553,40.481423,-86.125974,Kokomo Housing Authority,,,,,,,
GARDEN SQUARE,800 E Hoffer St Apt A8,Kokomo,Howard,IN,469025712,40.466316,-86.122083,Kokomo Housing Authority,,,,,,,
MERLE HENDERSON APARTMENTS,81 S 14th St,Richmond,Wayne,IN,473745666,39.827674,-84.883016,Housing Authority of the City of Richmond,,,,,,,
Southview/ GEIER APARTMENTS,2001 W Main St Apt C20,Richmond,Wayne,IN,473743867,39.829047,-84.92818,Housing Authority of the City of Richmond,,,,,,,
"ROBERT F. ""BOBBY"" SMITH APART",1407 N H St Apt 1B,Richmond,Wayne,IN,473742575,39.838492,-84.88225,Housing Authority of the City of Richmond,,,,,,,
COLUMBIA CENTER,7406 Chestnut Ave,Hammond,Lake,IN,463242817,41.579188,-87.49559,Housing Authority of the City of Hammond,,,,,,,
TURNER PARK,4923 Hohman Ave Apt 101C,Hammond,Lake,IN,463201545,41.624376,-87.518138,Housing Authority of the City of Hammond,,,,,,,
ELDERLY HIGHRISE,578 Broadway,Gary,Lake,IN,464021900,41.600631,-87.337361,Housing Authority of the City of Gary,,,,,,,
SENIOR CITIZENS,650 Jackson St,Gary,Lake,IN,464022268,41.599261,-87.34477,Housing Authority of the City of Gary,,,,,,,
LEASED ELDERLY HIGHRISE,100 W 11th Ave,Gary,Lake,IN,464022935,41.591992,-87.338328,Housing Authority of the City of Gary,,,,,,,
SENIOR CITIZENS,3280 Pierce St,Gary,Lake,IN,464081188,41.559181,-87.351272,Housing Authority of the City of Gary,,,,,,,
SCATTERED SITES,1776 Burr St,Gary,Lake,IN,464062656,41.585118,-87.403675,Housing Authority of the City of Gary,,,,,,,
DELANEY COMMUNITY,2283 Fillmore St,Gary,Lake,IN,464072931,41.57722,-87.350319,Housing Authority of the City of Gary,,,,,,,
Homeownership,324 S Hamilton St,Gary,Lake,IN,464032356,41.603825,-87.269507,Housing Authority of the City of Gary,,,,,,,
SCATTERED SITES,1406 E 49th Pl,Gary,Lake,IN,464092974,41.528174,-87.319676,Housing Authority of the City of Gary,,,,,,,
DORIE MILLER,1807 E 20th Ave,Gary,Lake,IN,464071627,41.581162,-87.314749,Housing Authority of the City of Gary,,,,,,,
Duneland,367 Old Duneland Pkwy,Gary,Lake,IN,464032400,41.6116,-87.266,Housing Authority of the City of Gary,,,,,,,
Horace Mann Apartments,648 Washington St,Gary,Lake,IN,464022402,41.599331,-87.338653,Housing Authority of the City of Gary,,,,,,,
JOHN J BARTON APTS,555 Massachusetts Ave,Indianapolis,Marion,IN,462041525,39.774591,-86.149318,Indianapolis Housing Agency,,,,,,,
LUGAR TOWERS,901 Fort Wayne Ave,Indianapolis,Marion,IN,462023362,39.77892,-86.151259,Indianapolis Housing Agency,,,,,,,
BLACKBURN TERRACE,3524 Baltimore Ave,Indianapolis,Marion,IN,462181116,39.822808,-86.124768,Indianapolis Housing Agency,,,,,,,
HAWTHORNE PL,5260 E 32nd St,Indianapolis,Marion,IN,462182446,39.814415,-86.079943,Indianapolis Housing Agency,,,,,,,
LAURELWOOD APTS,3335 Teakwood Dr,Indianapolis,Marion,IN,462273239,39.71817,-86.134472,Indianapolis Housing Agency,,,,,,,
CONCORD HOMES EAST,784 N Centennial St,Indianapolis,Marion,IN,462223507,39.77846,-86.213336,Indianapolis Housing Agency,,,,,,,
Tibbs Court,518 N Traub Ave,Indianapolis,Marion,IN,462223833,39.774936,-86.196051,Indianapolis Housing Agency,,,,,,,
Red Maple Grove,2821 E Raymond St,Indianapolis,Marion,IN,462034669,39.737566,-86.1134,Indianapolis Housing Agency,,,,,,,
BOULEVARD GARDENS,421 E 6th St,Michigan City,La Porte,IN,463601483,41.717238,-86.896654,Housing Authority of the City of Michigan City,,,,,,,
SCATTERED SITES,305 Brinkman Ave,Michigan City,La Porte,IN,463606916,41.692799,-86.896744,Housing Authority of the City of Michigan City,,,,,,,
BARBEE CREEK VILLAGE,518 E 12th St,Mishawaka,St Joseph,IN,465445421,41.651388,-86.174414,Housing Authority of the City of Mishawaka,,,,,,,
RIVER VIEW 500,500 Lincolnway E,Mishawaka,St Joseph,IN,465442266,41.6607,-86.1665,Housing Authority of the City of Mishawaka,,,,,,,
CRESTMONT,1006 N Summitt St,Bloomington,Monroe,IN,474043173,39.175081,-86.547875,Housing Authority of the City of Bloomington,,,,,,,
WALNUT WOODS,818 E Miller Dr,Bloomington,Monroe,IN,474016777,39.146701,-86.522304,Housing Authority of the City of Bloomington,,,,,,,
LINCOLN MNR&KENNEDY PLAZA,320 N 5th St,Rockport,Spencer,IN,476351439,37.885853,-87.049289,Rockport Housing Authority,,,,,,,
ROSEDALE HI-RISE,501 W Indiana Ave,Elkhart,Elkhart,IN,465162505,41.673852,-85.973869,Housing Authority of the City of Elkhart,,,,,,,
WASHINGTON GARDENS,410 W Indiana Ave Apt A,Elkhart,Elkhart,IN,465160904,41.674186,-85.972953,Housing Authority of the City of Elkhart,,,,,,,
WATERFALL HI-RISE,303 Waterfall Dr,Elkhart,Elkhart,IN,465163658,41.684512,-85.968428,Housing Authority of the City of Elkhart,,,,,,,
SCATTERED SITES,5 Malcolm Dr Apt A,Elkhart,Elkhart,IN,465172656,41.654115,-85.948666,Housing Authority of the City of Elkhart,,,,,,,
RIVERSIDE TERRACE,181 N Elkhart Ave,Elkhart,Elkhart,IN,465163549,41.691429,-85.966794,Housing Authority of the City of Elkhart,,,,,,,
FRIENDSHIP VILLAGE & LEAGUE CIR,1101 Friendship Vlg,Huntingburg,Dubois,IN,475421270,38.304279,-86.949544,Housing Authority of the City of Huntingburg,,,,,,,
JAMES HUNTER,3625 Pulaski St,East Chicago,Lake,IN,463122162,41.647381,-87.443642,Housing Authority of the City of East Chicago,,,,,,,
JOHN B NICOSIA,4720 Railroad Ave,East Chicago,Lake,IN,463123360,41.628891,-87.476353,Housing Authority of the City of East Chicago,,,,,,,
WEST CALUMET COMPLEX,4700 Larkspur St,East Chicago,Lake,IN,463123764,41.623309,-87.470346,Housing Authority of the City of East Chicago,,,,,,,
SCATTERED SITES,1301 E Columbus Dr,East Chicago,Lake,IN,463122854,41.638928,-87.455138,Housing Authority of the City of East Chicago,,,,,,,
WASHINGTON TOWERS,520 SE 2nd St,Washington,Daviess,IN,475014042,38.652232,-87.173121,Washington Housing Authority,,,,,,,
HAUCK HOUSE APARTMENTS.,1305 K St,Bedford,Lawrence,IN,474213248,38.86448,-86.485899,Housing Authority of the City of Bedford,,,,,,,
BLOOMFIELD HOUSING AUTHORIT,100 W Main St Ofc 801,Bloomfield,Greene,IN,474241353,39.026999,-86.939976,Bloomfield Housing Authority,,,,,,,
SUNRISE TOWERS,200 Sunrise Towers,Sullivan,Sullivan,IN,478821273,39.097103,-87.408628,Sullivan Housing Authority,,,,,,,
CLOVERLEAF CIRCLE,1500 Jefferson St,Mount Vernon,Posey,IN,476201282,37.943534,-87.899782,Mount Vernon Housing Authority,,,,,,,
ELLIOTT MANOR,617 Williams St,Angola,Steuben,IN,467031173,41.642019,-84.994812,Housing Authority of the City of Angola,,,,,,,
MASON HOMES,1202 Upton St,Marion,Grant,IN,469531464,40.549584,-85.680869,"Housing Authority of the City of Marion, IN",,,,,,,
NORMAN MANOR,121 N Washington St,Marion,Grant,IN,469522868,40.5621,-85.660023,"Housing Authority of the City of Marion, IN",,,,,,,
LINTON HOUSING AUTHORITY,RR 2 Box 659,Linton,Greene,IN,474419601,39.0295,-87.1602,Linton Housing Authority,,,,,,,
BROCKVILLE COMMONS,200 W Spring St,Fremont,Steuben,IN,467372060,41.7297,-84.9504,Fremont Housing Authority,,,,,,,
FRONT ST CT&SYLVAN MANOR,150 Kerr Ave Apt 1,Rome City,Noble,IN,467849779,41.492813,-85.375259,Housing Authority of the City of Rome City,,,,,,,
GREENDALE VILLAGE APTS,489 Ludlow St,Greendale,Dearborn,IN,470251579,39.107362,-84.864073,Greendale Housing Authority,,,,,,,
EASTWOOD PLACE,701 E Main St,Peru,Miami,IN,469702640,40.7618,-86.048033,Housing Authority of the City of Peru,,,,,,,